{"type": "FeatureCollection", "features": [{"type": "Feature", "properties": {"ADM_CD": "31280110", "ADM_NM": "가남읍", "시도명": "경기도", "시군구명": "여주시", "읍면동명": "가남읍", "읍면동KEY": "경기도 여주시 가남읍", "구시군KEY": "경기도 여주시", "매핑상태": "exact"}, "geometry": {"type": "Polygon", "coordinates": [[[127.55177886809966, 37.26492264273326], [127.55160689059286, 37.26091224516036], [127.55331162862448, 37.258152946018704], [127.55339036022635, 37.25387973620225], [127.5563803100667, 37.25111042768823], [127.55747320450423, 37.25258532650414], [127.559907942602, 37.25176164766401], [127.56094626318335, 37.25478131773482], [127.5634337235128, 37.25528461898307], [127.56414174452209, 37.25588051981652], [127.56499458128917, 37.255144660623635], [127.56689222638522, 37.25545698584444], [127.56827882950307, 37.25352960374474], [127.56952177127184, 37.25301202072829], [127.57059503163256, 37.251957694554456], [127.5710491844895, 37.25177300819801], [127.5718618778985, 37.2521524840498], [127.57250421256403, 37.2516175939271], [127.57325126117243, 37.25166063501338], [127.57400324236099, 37.25063322072661], [127.57423802722231, 37.248423835310675], [127.57705663532047, 37.24902038899452], [127.57981461615894, 37.24831665079062], [127.58350215226845, 37.24983830935562], [127.58631300619992, 37.24878987653084], [127.58750481335717, 37.24913848363124], [127.58899862278437, 37.25080399886503], [127.59001027777788, 37.251016373048735], [127.5910231166797, 37.2506071616289], [127.59249752955954, 37.248766904879176], [127.59292736959534, 37.248735987272674], [127.59392827947558, 37.2495029112935], [127.59669945224896, 37.249621709558866], [127.59921819777016, 37.251205112441795], [127.5976619496727, 37.2483033174894], [127.59758200320756, 37.246169426192495], [127.60000640120438, 37.244531812769914], [127.60201881608378, 37.24414541058045], [127.60205522786225, 37.24360264660865], [127.6026125625675, 37.243244409757246], [127.60245643246333, 37.242727401369336], [127.6030487049406, 37.24178756326452], [127.60348393063423, 37.24177787311307], [127.60397996300993, 37.24029470442665], [127.60523056130762, 37.238650975577414], [127.60725740956504, 37.23932560298872], [127.60737299135045, 37.23853150547405], [127.60677603929543, 37.23821502245183], [127.60739230653911, 37.23725282781428], [127.60857478414925, 37.23701904342285], [127.6086475602889, 37.236300893750894], [127.60981555400808, 37.23551945074319], [127.60981163537592, 37.234769484011565], [127.60848573065968, 37.23400515383804], [127.60850819277334, 37.23352805824428], [127.6122867319528, 37.23348894842194], [127.61391968789795, 37.232860295411186], [127.61556523253105, 37.2336038698787], [127.61618599864393, 37.23319486477734], [127.61679895862461, 37.23188810232928], [127.61612544323862, 37.23060457483589], [127.61803576390997, 37.22897250900377], [127.61891246145242, 37.22677439300399], [127.61838895885987, 37.22480549411654], [127.61930912625158, 37.22412683075743], [127.61876926183685, 37.22342606864501], [127.61906356032848, 37.22198416315851], [127.61960789997248, 37.22141643035915], [127.62057556635708, 37.22128827938581], [127.6205969515492, 37.220126048714555], [127.62142800391467, 37.219979161489114], [127.62621273326546, 37.21645913364473], [127.6277727005176, 37.21603941541198], [127.63010112379456, 37.216600442871425], [127.63236359432668, 37.21526256847942], [127.63464453604101, 37.2149925169957], [127.63559659276586, 37.21386288865046], [127.6363216472796, 37.21376152310875], [127.63819741413066, 37.21238546036345], [127.63910352633025, 37.21272907725035], [127.64186257643473, 37.21239821290282], [127.64120752834302, 37.2115325657763], [127.64138649075227, 37.21041973102469], [127.64102174209002, 37.20988874303782], [127.64137708728747, 37.208652324539216], [127.64205213569393, 37.20837385279263], [127.64175024934205, 37.20762909225467], [127.64326686300318, 37.205943322577276], [127.64251198076543, 37.2040726028695], [127.64148712087324, 37.20318515168655], [127.63808271330193, 37.202145091959906], [127.63823171975095, 37.20144581316225], [127.63699347085979, 37.19956348853618], [127.63685470210328, 37.19710929500142], [127.6372547467672, 37.196094362954575], [127.63769279488635, 37.19602059686231], [127.63768090243309, 37.19490105818207], [127.63879221880008, 37.194491621691085], [127.64080510617949, 37.19477283629563], [127.64187881972647, 37.194478105874005], [127.64206525330776, 37.19387911912137], [127.64384369296516, 37.193476579211975], [127.64450384511142, 37.19263365170793], [127.64682519885157, 37.19144010329483], [127.64723027185833, 37.19076910614749], [127.64700515264195, 37.18932715159231], [127.64749590951706, 37.18824531251945], [127.64853141583859, 37.18796764011653], [127.64897888620953, 37.18714441223164], [127.64837737873682, 37.18521360586309], [127.64849133295085, 37.183717702611794], [127.64912581378893, 37.18295295631322], [127.64876359101117, 37.18234285578631], [127.65023425617949, 37.18129898676522], [127.64972498030153, 37.18050733305268], [127.64988473026754, 37.18007037674825], [127.64890135378269, 37.179605532889234], [127.64842491629332, 37.17877661535058], [127.64922329905136, 37.17803700218833], [127.64694610629995, 37.174935360349636], [127.64416268959005, 37.17562030625323], [127.64386498771613, 37.17513538924042], [127.64313923057728, 37.17522338004853], [127.64288356393814, 37.172644923054236], [127.64527900570617, 37.17187190468506], [127.64492692963246, 37.17123949756602], [127.64371900214837, 37.17027814084854], [127.64240162715208, 37.16992908390875], [127.64135810837985, 37.16816538868809], [127.63953480162554, 37.1678209242541], [127.6387093007046, 37.16800553629266], [127.63769267579607, 37.167643871927176], [127.63654611720227, 37.169358346253986], [127.63348804406735, 37.16867143916619], [127.63125179652909, 37.169658901436264], [127.62885185278873, 37.16950413624451], [127.62696523690813, 37.1662148799418], [127.625740940509, 37.165042207555736], [127.6240396667559, 37.164169295740834], [127.62313681670658, 37.16435634121859], [127.62234115955896, 37.16358469471018], [127.6213162200325, 37.1638947182131], [127.62092562405248, 37.16317794784335], [127.61951613046922, 37.1625772884068], [127.61961052034779, 37.16175619182346], [127.6189747359657, 37.161270613327964], [127.61829798076053, 37.161838395290864], [127.61803574148955, 37.16314446937324], [127.61602908680803, 37.163333405024005], [127.61515000774884, 37.16397773214615], [127.61472314534143, 37.16560346566958], [127.61398330332622, 37.166003747188604], [127.61437065369903, 37.16943953747242], [127.61390649798336, 37.170619627854386], [127.61227836419, 37.17233343740714], [127.61272323159675, 37.17262964860134], [127.61248634275346, 37.173098479407116], [127.61281020286027, 37.173381564138474], [127.61142481616561, 37.17453165300852], [127.60858981214112, 37.1751470178538], [127.60805603200765, 37.17657299655183], [127.60736757445616, 37.177172916801865], [127.60587639193268, 37.17787571038618], [127.60600852506735, 37.17816151220861], [127.60524607719273, 37.177979318120656], [127.60501337847394, 37.178847964377695], [127.60400266869033, 37.179507368509], [127.60435395758246, 37.179784902858486], [127.60310356825826, 37.18092807417293], [127.60257493446781, 37.18265022008622], [127.60142966133417, 37.18342128820289], [127.59972802056843, 37.182925927870514], [127.59925226974376, 37.18312797291575], [127.59850500128476, 37.184923381440456], [127.5979915345552, 37.18836791517141], [127.59630596498837, 37.18884492739671], [127.59568032197863, 37.18988258205882], [127.5938087520153, 37.18922686063192], [127.59289206732261, 37.189619954789784], [127.59149236527324, 37.18840601467248], [127.59008317636822, 37.188625233956024], [127.58912264363556, 37.18758328757111], [127.5875977162561, 37.18705021344104], [127.58044374202443, 37.187466006081735], [127.57799899026794, 37.189395552620745], [127.5763519029448, 37.18912362328258], [127.57540012896585, 37.18794139460872], [127.57382779806356, 37.187166251843784], [127.5739314561182, 37.18669506122756], [127.57296617179556, 37.18597625251681], [127.5724856872146, 37.1845322172156], [127.57279993986894, 37.18367832350828], [127.57442341663611, 37.18246467481813], [127.57484926854858, 37.18135037565606], [127.57470119703297, 37.179235362109786], [127.57586113954785, 37.1789581276856], [127.57591868469831, 37.17847538010992], [127.57673599340622, 37.178212647168124], [127.57760151541821, 37.177241912342936], [127.57779686323543, 37.17627685287073], [127.57723072432577, 37.17586512740139], [127.57709027573053, 37.175163001362414], [127.57557806651909, 37.17471981895425], [127.57082670930258, 37.17017717569573], [127.57008547286435, 37.170638895732246], [127.56896579780704, 37.17369242430626], [127.56668860309148, 37.176096083852876], [127.56443911661565, 37.17746780605984], [127.56383007625836, 37.17849851154333], [127.56193590307198, 37.17851059336294], [127.56089711568404, 37.17910688906686], [127.56081747828217, 37.179728447842635], [127.5600527797409, 37.18038308967824], [127.5590619472639, 37.18076660539004], [127.55829448906529, 37.17992463081526], [127.5577453534269, 37.17742676691754], [127.55719229679028, 37.17739932111823], [127.55622401232746, 37.176532980288926], [127.55445497124985, 37.17641522790204], [127.55319758591956, 37.17543811870019], [127.54945933582215, 37.17513246143816], [127.54718697448641, 37.17323885522743], [127.54632515499281, 37.17506737672661], [127.5422674743386, 37.17425479296473], [127.54034738264029, 37.175390961058305], [127.53927624978282, 37.17547269447734], [127.5365906771297, 37.17348042080692], [127.53530670271157, 37.173704785278254], [127.5339183939346, 37.17324875314218], [127.53278205143891, 37.17361290989828], [127.53012011122799, 37.17284683724761], [127.52781705506553, 37.17288640816239], [127.5268140436304, 37.173576442979524], [127.52700161729122, 37.174822186704866], [127.52637003601475, 37.176128348523285], [127.52493962244506, 37.177022231042535], [127.52495732018343, 37.17740980011821], [127.52429377500523, 37.177128669200705], [127.52329689149053, 37.17789894629537], [127.5231930128653, 37.17919848998509], [127.52374640210473, 37.17984662619256], [127.52321532961757, 37.180442320095196], [127.52206093592588, 37.18070619565095], [127.5217589047188, 37.18147523091881], [127.51994691177683, 37.18219322058095], [127.51859554301465, 37.182019276134874], [127.51714469589481, 37.182432507166624], [127.51752702652789, 37.18286309689962], [127.51736233519372, 37.184289408454816], [127.51817121649387, 37.18504229665784], [127.51871044530165, 37.18633679923943], [127.51959614058755, 37.18669280134271], [127.52013703206467, 37.1884189137805], [127.52577200738091, 37.19387241412414], [127.52610734729109, 37.19513237949708], [127.52802433367752, 37.19707912357117], [127.52902043180742, 37.19778650907585], [127.53072274288184, 37.19800417396679], [127.53103238633355, 37.19879570218296], [127.53069939340729, 37.19949999769817], [127.53128564767151, 37.19993698792786], [127.52989781713873, 37.20354734441589], [127.53079843008199, 37.20400472535604], [127.53059239857913, 37.20514996019197], [127.53157452886751, 37.20545192057617], [127.53090301527706, 37.20741701874197], [127.53147694134418, 37.20812365068935], [127.52992129569479, 37.211475525069496], [127.52976828050923, 37.21371627192378], [127.52937026517786, 37.214458334732555], [127.5297800197204, 37.2152125000307], [127.52961633433473, 37.21754987728328], [127.52786097595833, 37.218251845141474], [127.52745762712097, 37.219450388625575], [127.52825199332169, 37.219844492740016], [127.52868734915288, 37.2218637062511], [127.52771892445459, 37.22447188326531], [127.52787584935118, 37.22597590621357], [127.52678755548884, 37.22695751621188], [127.52700351429833, 37.22785233574374], [127.52603131303832, 37.22760809781074], [127.52640006477071, 37.229852976640565], [127.52860829396373, 37.23143890187081], [127.5256309716251, 37.2317529850587], [127.52611084526492, 37.2355952570007], [127.52567573782918, 37.236526801197925], [127.52557230512552, 37.239916038639926], [127.52739025072353, 37.24042156625624], [127.52967154670321, 37.24290308162221], [127.53295212632524, 37.243606145456624], [127.53347077194668, 37.24436117429542], [127.53598903344653, 37.24519456043248], [127.5366901403752, 37.24679610126311], [127.53875634415049, 37.24697914672722], [127.54026374410428, 37.248555412305876], [127.54145277920615, 37.248613274257984], [127.5430795407133, 37.249715271377596], [127.54279358852506, 37.25099617295879], [127.54304432839783, 37.252397635434725], [127.54475763032661, 37.252424783298345], [127.54609708870315, 37.25302852493541], [127.54690833200009, 37.25547953702929], [127.54755175680023, 37.256026828264126], [127.54683126661905, 37.259620769079234], [127.5475328616813, 37.260290042828025], [127.54897415647109, 37.260391005711284], [127.54808475839829, 37.26186733488194], [127.54838082083013, 37.26312549156061], [127.54898109118156, 37.26381329806695], [127.55177886809966, 37.26492264273326]]]}}, {"type": "Feature", "properties": {"ADM_CD": "31280310", "ADM_NM": "점동면", "시도명": "경기도", "시군구명": "여주시", "읍면동명": "점동면", "읍면동KEY": "경기도 여주시 점동면", "구시군KEY": "경기도 여주시", "매핑상태": "exact"}, "geometry": {"type": "Polygon", "coordinates": [[[127.68597864074769, 37.24394505637926], [127.68966597610942, 37.233796963061366], [127.69219171488514, 37.231170789796636], [127.69379659219922, 37.23020101139997], [127.70161520511719, 37.22907866245745], [127.70505754004176, 37.229416908493825], [127.70802548975084, 37.22909169361724], [127.71069909110994, 37.23021747961094], [127.71927891473426, 37.229007918377775], [127.72019169178178, 37.22932604109983], [127.7239066879159, 37.22930343832789], [127.72758399650743, 37.228400176212695], [127.73321845215423, 37.22845029430306], [127.7471790895295, 37.22715743865768], [127.7481272768727, 37.22554915374588], [127.74920712569813, 37.22193826039023], [127.7489349606654, 37.21833589403873], [127.74635890795835, 37.21447678102542], [127.74475104849374, 37.21364588353253], [127.74412975350893, 37.21486082153108], [127.74350813333193, 37.21457558582971], [127.7417983966428, 37.21218365261976], [127.74045190762158, 37.2119913017137], [127.73673995363434, 37.210193475035375], [127.73587791682161, 37.20831513315967], [127.73525627927154, 37.20806668983295], [127.73557773274811, 37.205527757858626], [127.73480197353213, 37.20466222667086], [127.73383725513756, 37.202273164891956], [127.73217808716021, 37.20137731128641], [127.73260134594128, 37.20055335273928], [127.73221207431584, 37.199864504960736], [127.73283313026693, 37.1987853638824], [127.73246984623722, 37.19812422460216], [127.73250060305342, 37.195800227673146], [127.73045981570532, 37.194807589636085], [127.73076598887063, 37.194143740590924], [127.73003760572378, 37.19295576626421], [127.72834968299789, 37.19178691513093], [127.72768733287684, 37.18932750818592], [127.72830059105345, 37.18772949691105], [127.72790921630767, 37.18765390347354], [127.72796017388552, 37.18646958734867], [127.72732940369268, 37.18473024333622], [127.72663303773444, 37.18415024533706], [127.72640685009233, 37.1825404744869], [127.72279843157291, 37.18156917918615], [127.72217539320634, 37.18183449115709], [127.72151948189777, 37.18306219124052], [127.71850244739099, 37.18382608205256], [127.71690409376318, 37.18342971801356], [127.71660816428044, 37.18235027153419], [127.71451717434131, 37.1811217053916], [127.7147925449175, 37.18024239125056], [127.71390999968455, 37.178445642655696], [127.71301585619416, 37.1782967136946], [127.71233921229641, 37.17679915574485], [127.71110923939177, 37.17661110183898], [127.71038163236277, 37.17573077018776], [127.71080772685323, 37.175088760097196], [127.70964452999556, 37.17329084534853], [127.70965294774844, 37.172192385053094], [127.7086757462138, 37.170937904907795], [127.70674980188464, 37.17069484194456], [127.70660944054463, 37.16982702909535], [127.70485484576967, 37.16752011188963], [127.70459148392328, 37.16651336613265], [127.70489295258103, 37.166052050404595], [127.70481281289237, 37.16268013545609], [127.70431930953329, 37.16117101331847], [127.70488871706642, 37.160658551903], [127.70482734083032, 37.159882063827425], [127.70402372136634, 37.158730688015474], [127.70427262264225, 37.1576476940365], [127.70057148389247, 37.15364646811043], [127.69846244053954, 37.15259622727934], [127.69623769897987, 37.15211991832699], [127.69520758508749, 37.15123928040143], [127.69472770269415, 37.14997838842547], [127.6944961157434, 37.148827263861406], [127.69500106183311, 37.14695916001989], [127.69408341113564, 37.1455957975038], [127.69457303089773, 37.14347521479572], [127.69453452290132, 37.141258901991435], [127.69548408716933, 37.140422138935186], [127.6925104682968, 37.13814042485464], [127.69045056794904, 37.13736104337345], [127.6885925986582, 37.13554068471876], [127.6867976989576, 37.135055538825625], [127.682777997258, 37.136456947767144], [127.68064249064632, 37.13565443202003], [127.67739878711524, 37.136757614845], [127.67474487228425, 37.13627083131152], [127.67336722664638, 37.13661254836209], [127.67163467540583, 37.136173139790614], [127.67126953856933, 37.136462095620814], [127.67021247363107, 37.13610802196784], [127.66600378556079, 37.139455493068674], [127.66129958419296, 37.13938466741462], [127.65994331027174, 37.1399151352914], [127.65987543565825, 37.14068700788564], [127.65847594204938, 37.14113515528304], [127.65733315562898, 37.14233503229031], [127.65561790451524, 37.14238830526052], [127.65575498356753, 37.14403793880518], [127.65636911781132, 37.144260347074045], [127.65637418480375, 37.14488055703445], [127.65236821893794, 37.14804631975183], [127.65118362405212, 37.1473895533408], [127.65010903540124, 37.1475969710357], [127.64808854970684, 37.150604967653514], [127.6471831888458, 37.15065165582037], [127.64640571512274, 37.15120425572501], [127.64509686117792, 37.150900868277546], [127.64292479002073, 37.15186944114096], [127.64122141388776, 37.15114351400452], [127.63867447699481, 37.15310658770553], [127.63329680161294, 37.15298096763713], [127.63223351291744, 37.153888020748795], [127.62987059284308, 37.15413608085896], [127.62969568103038, 37.154585717115985], [127.6282917173928, 37.15530021961315], [127.63028553146644, 37.15927558385022], [127.63299765571851, 37.16197599462693], [127.63243813274836, 37.16298831911338], [127.63108286542776, 37.163963604622374], [127.63052354794215, 37.16524909942051], [127.62825294091607, 37.1659264983587], [127.62754719890103, 37.1655935031457], [127.62674083781516, 37.16601442594671], [127.62885185278873, 37.16950413624451], [127.63032473037752, 37.1698109001604], [127.6328365083009, 37.1692111715353], [127.63348804406735, 37.16867143916619], [127.63654611720227, 37.169358346253986], [127.63769267579607, 37.167643871927176], [127.64135810837985, 37.16816538868809], [127.64240162715208, 37.16992908390875], [127.64411793960353, 37.17049704753507], [127.64527900570617, 37.17187190468506], [127.64288356393814, 37.172644923054236], [127.64313923057728, 37.17522338004853], [127.64386498771613, 37.17513538924042], [127.64416268959005, 37.17562030625323], [127.64694610629995, 37.174935360349636], [127.64922329905136, 37.17803700218833], [127.64842491629332, 37.17877661535058], [127.64890135378269, 37.179605532889234], [127.64988473026754, 37.18007037674825], [127.64972498030153, 37.18050733305268], [127.65023425617949, 37.18129898676522], [127.64876359101117, 37.18234285578631], [127.64912581378893, 37.18295295631322], [127.64849133295085, 37.183717702611794], [127.64837737873682, 37.18521360586309], [127.64897888620953, 37.18714441223164], [127.64853141583859, 37.18796764011653], [127.64749590951706, 37.18824531251945], [127.64700515264195, 37.18932715159231], [127.64723027185833, 37.19076910614749], [127.64682519885157, 37.19144010329483], [127.64450384511142, 37.19263365170793], [127.64384369296516, 37.193476579211975], [127.64206525330776, 37.19387911912137], [127.64187881972647, 37.194478105874005], [127.64080510617949, 37.19477283629563], [127.63879221880008, 37.194491621691085], [127.63768090243309, 37.19490105818207], [127.63769279488635, 37.19602059686231], [127.6372547467672, 37.196094362954575], [127.63685470210328, 37.19710929500142], [127.63699347085979, 37.19956348853618], [127.63823171975095, 37.20144581316225], [127.63808271330193, 37.202145091959906], [127.64148712087324, 37.20318515168655], [127.64251198076543, 37.2040726028695], [127.64326686300318, 37.205943322577276], [127.64175024934205, 37.20762909225467], [127.64205213569393, 37.20837385279263], [127.64137708728747, 37.208652324539216], [127.64102174209002, 37.20988874303782], [127.64138649075227, 37.21041973102469], [127.64120752834302, 37.2115325657763], [127.64213558422158, 37.21275898499585], [127.6414592952954, 37.214379841401886], [127.64449408029255, 37.21489452566997], [127.64701145639111, 37.214761511514226], [127.64729950622785, 37.2152212492446], [127.6490968129809, 37.21590038215214], [127.64848710947527, 37.21869172383496], [127.64891611807225, 37.22020792437623], [127.64822987482471, 37.220844725304694], [127.64799435300873, 37.22210436759233], [127.65084748524707, 37.22408207140247], [127.65095666465956, 37.22457457697763], [127.6519062638301, 37.22392286182093], [127.65543109529804, 37.22415719232357], [127.65820053397078, 37.22518672458783], [127.65900711122505, 37.22631345235785], [127.66156299520041, 37.2280374928749], [127.66505261786367, 37.229198875678655], [127.66631504697543, 37.23256612277134], [127.66751444854702, 37.23400129935083], [127.66745463135668, 37.23499652917258], [127.6662592475543, 37.23685566680368], [127.66641094827541, 37.23736222588022], [127.66988559605221, 37.24122341481453], [127.67016980412524, 37.24274716905896], [127.67089091889554, 37.24367694015785], [127.67152293858474, 37.24366366993463], [127.67199251108744, 37.242449860196714], [127.67586155881068, 37.24220270741773], [127.67658459098269, 37.24184417932832], [127.67753651391376, 37.24263088315416], [127.67952039495691, 37.24321038541213], [127.68157090201393, 37.24224714947385], [127.68369704850716, 37.24343213453082], [127.68332292434555, 37.24396037671735], [127.68597864074769, 37.24394505637926]]]}}, {"type": "Feature", "properties": {"ADM_CD": "31280330", "ADM_NM": "흥천면", "시도명": "경기도", "시군구명": "여주시", "읍면동명": "흥천면", "읍면동KEY": "경기도 여주시 흥천면", "구시군KEY": "경기도 여주시", "매핑상태": "exact"}, "geometry": {"type": "Polygon", "coordinates": [[[127.54314404241157, 37.38295445001334], [127.54286482727589, 37.38164033099628], [127.54398040726473, 37.379089768321435], [127.54473820621486, 37.37600089990389], [127.54467950704884, 37.37442438051662], [127.54787507433656, 37.37318728323542], [127.54498292135587, 37.37081853192677], [127.54975210550843, 37.36772498589471], [127.5497226641555, 37.36719262658542], [127.55393532389657, 37.36599705855626], [127.56118402872387, 37.360247840414026], [127.5637751512442, 37.3603120026725], [127.56684800445896, 37.3621724107918], [127.56595463914351, 37.354607074713286], [127.56763162626244, 37.352858499764686], [127.56807046531213, 37.35183067983704], [127.56684024492903, 37.350697329106374], [127.56679351277134, 37.34992154768041], [127.56936964228409, 37.34859702356231], [127.57047080554385, 37.34629688585924], [127.57305851522379, 37.345457951800455], [127.57288075679952, 37.34439247402396], [127.56993646744783, 37.34396524168835], [127.56987788052898, 37.34275096096877], [127.57155078769458, 37.34194827506793], [127.57117091933635, 37.340062313322186], [127.57303664532584, 37.33826677165959], [127.57314406116295, 37.33613090894846], [127.57179381065275, 37.33328540586419], [127.57187247286228, 37.33273548013743], [127.57465552666218, 37.331034039484024], [127.57427143224405, 37.324248691652606], [127.57546227166486, 37.3227995053076], [127.57227085345019, 37.320233401484465], [127.57193690318117, 37.31760308442722], [127.56996646938387, 37.317664158117736], [127.5697322360863, 37.31658244276665], [127.57030728240089, 37.315805257221164], [127.57028100534231, 37.3149794330287], [127.56861825743344, 37.314077953971626], [127.56820275455364, 37.31301733158047], [127.5701699802146, 37.31231691517764], [127.57002442246582, 37.311192678466156], [127.56955460407806, 37.310931440903715], [127.56991107104126, 37.30943257429823], [127.56941038819801, 37.30857293032], [127.56715865002256, 37.30741298652964], [127.56706803294554, 37.305712002577444], [127.5660658805605, 37.30471185593572], [127.56530146494089, 37.30291698861126], [127.5628845017289, 37.3015182120236], [127.56081298059715, 37.2993783999874], [127.5573717748986, 37.29946774564071], [127.555436810034, 37.29855082181158], [127.54469863038216, 37.29669784364598], [127.54390042240627, 37.2962531043276], [127.54274141868909, 37.29483449215618], [127.5426985702426, 37.294660505362565], [127.54263566853126, 37.29459100321061], [127.54290649262323, 37.2963368237658], [127.54412179476809, 37.29807016475536], [127.54524697027998, 37.3007365111106], [127.54623268023634, 37.301353682658224], [127.54587574604193, 37.30347271696092], [127.54624837756795, 37.306613572380904], [127.54553309664199, 37.30918432993952], [127.54615959025243, 37.30982352022548], [127.5459197421638, 37.31114017476254], [127.54465570201776, 37.31235745300421], [127.54271882301019, 37.31311181015976], [127.5355677036213, 37.3136461825607], [127.53351581862955, 37.314117997475876], [127.53042483254116, 37.31588719448449], [127.52838354904885, 37.31616703852928], [127.52813885256919, 37.31713427000842], [127.52695326683349, 37.31865028407219], [127.52790470736636, 37.319195676614235], [127.52790518582908, 37.32088057506477], [127.52506024453355, 37.32385753927655], [127.5254557801135, 37.325576727623115], [127.52616655965377, 37.32557357995027], [127.5278913838414, 37.326989524347816], [127.52795238809009, 37.32764728078915], [127.52760262664127, 37.32764854913206], [127.52657175208982, 37.32956854996893], [127.52546307588676, 37.32991746235435], [127.5208477471574, 37.32980478378999], [127.5178674915835, 37.33429275213595], [127.51601076845377, 37.33564491109214], [127.51554783612933, 37.33753228682042], [127.5139154052854, 37.339115459536785], [127.5096140994973, 37.338836674096086], [127.5056171071231, 37.338068807123506], [127.50204208606888, 37.33819480936444], [127.49959285147489, 37.3404931810246], [127.49812438576515, 37.34125926988117], [127.4961937007479, 37.34143743481443], [127.49646390130135, 37.341712591866205], [127.49325841509342, 37.341177518592666], [127.49054704307316, 37.34261439519201], [127.48963103544861, 37.34269749608626], [127.48853487408506, 37.34452944062642], [127.48854398091329, 37.34553873009246], [127.48786105621053, 37.34619003361018], [127.48759613758199, 37.34729667519838], [127.48549656240192, 37.349372677973705], [127.48536752575117, 37.35000277039993], [127.48431455184216, 37.350648520738744], [127.4827396412494, 37.350720099809806], [127.48166060780693, 37.351304646242575], [127.4810882773602, 37.353000469545194], [127.47866234013479, 37.354820474995876], [127.47822881869156, 37.355925286800925], [127.47691161895493, 37.35692481851767], [127.47607634789145, 37.35679355278653], [127.47286547559474, 37.35884398621404], [127.4724549150352, 37.35990321979295], [127.47285847771383, 37.3605406106309], [127.47084521382293, 37.36133980412796], [127.47032098247797, 37.36287381221856], [127.4726223576842, 37.36450460946656], [127.47768779382564, 37.36468542270836], [127.4783292108707, 37.36561805233297], [127.47815579187193, 37.36807794614713], [127.47871732666765, 37.36964155513842], [127.48052251005272, 37.36879987009953], [127.48069097236593, 37.368085496425095], [127.48142455034531, 37.36773240727181], [127.48316978899419, 37.36820947147711], [127.48563884739207, 37.367952216736285], [127.48798517424098, 37.369052635325595], [127.4918436301048, 37.36848122284771], [127.49458725861126, 37.36665355594778], [127.49787630064158, 37.36783224582505], [127.49847641864712, 37.36871046362775], [127.50110449069889, 37.36715888043121], [127.50771072221528, 37.36748632446692], [127.50962693721173, 37.368400787917466], [127.50970445377209, 37.3690058879104], [127.51107719679574, 37.36979743896802], [127.51089547995966, 37.370780475511864], [127.51162756600147, 37.37119644249791], [127.51247389165984, 37.37258070347118], [127.51285378910698, 37.37469483838253], [127.51386821726472, 37.37540649764623], [127.51365306952451, 37.37634884745316], [127.51464520765494, 37.376683849481225], [127.5145920255853, 37.37758831342474], [127.51516762538216, 37.378847369881825], [127.51607852827043, 37.37897853449873], [127.51720551528375, 37.379923567418466], [127.52083446212121, 37.37917716967219], [127.52317024519982, 37.3794101442863], [127.527788715418, 37.381832304426446], [127.52798961243691, 37.38386390031759], [127.53091312035822, 37.385701237164405], [127.53118272802816, 37.385540831778435], [127.53099112642207, 37.38479161194207], [127.5300769459636, 37.38417324055269], [127.53038994891301, 37.38312732204035], [127.5314664633258, 37.382367649250874], [127.5322412315516, 37.38199056263274], [127.53259112136304, 37.38258025170454], [127.5346706304195, 37.38312990512573], [127.53506909144033, 37.3837925648036], [127.53324930517448, 37.38971228772507], [127.53597295309166, 37.39082785480131], [127.53861319722502, 37.39078660953596], [127.53925208751168, 37.388864861479185], [127.54278501870421, 37.385244722193995], [127.54445699385987, 37.38415961585268], [127.54314404241157, 37.38295445001334]]]}}, {"type": "Feature", "properties": {"ADM_CD": "31280340", "ADM_NM": "금사면", "시도명": "경기도", "시군구명": "여주시", "읍면동명": "금사면", "읍면동KEY": "경기도 여주시 금사면", "구시군KEY": "경기도 여주시", "매핑상태": "exact"}, "geometry": {"type": "Polygon", "coordinates": [[[127.53143816988052, 37.42573383527257], [127.53452911164459, 37.41885050443465], [127.53835034451176, 37.40688903964847], [127.53931856256594, 37.39607259757803], [127.53936734397581, 37.39483616294684], [127.53718354097387, 37.39146714426943], [127.53324930517448, 37.38971228772507], [127.53506909144033, 37.3837925648036], [127.5346706304195, 37.38312990512573], [127.53259112136304, 37.38258025170454], [127.5322412315516, 37.38199056263274], [127.5314664633258, 37.382367649250874], [127.53038994891301, 37.38312732204035], [127.5300769459636, 37.38417324055269], [127.53099112642207, 37.38479161194207], [127.53118272802816, 37.385540831778435], [127.53091312035822, 37.385701237164405], [127.52798961243691, 37.38386390031759], [127.527788715418, 37.381832304426446], [127.52317024519982, 37.3794101442863], [127.52083446212121, 37.37917716967219], [127.51720551528375, 37.379923567418466], [127.51607852827043, 37.37897853449873], [127.51516762538216, 37.378847369881825], [127.5145920255853, 37.37758831342474], [127.51464520765494, 37.376683849481225], [127.51365306952451, 37.37634884745316], [127.51386821726472, 37.37540649764623], [127.51285378910698, 37.37469483838253], [127.51247389165984, 37.37258070347118], [127.51162756600147, 37.37119644249791], [127.51089547995966, 37.370780475511864], [127.51107719679574, 37.36979743896802], [127.50970445377209, 37.3690058879104], [127.50962693721173, 37.368400787917466], [127.50771072221528, 37.36748632446692], [127.50110449069889, 37.36715888043121], [127.49847641864712, 37.36871046362775], [127.49787630064158, 37.36783224582505], [127.49458725861126, 37.36665355594778], [127.4918436301048, 37.36848122284771], [127.48798517424098, 37.369052635325595], [127.48563884739207, 37.367952216736285], [127.48316978899419, 37.36820947147711], [127.48142455034531, 37.36773240727181], [127.48069097236593, 37.368085496425095], [127.48052251005272, 37.36879987009953], [127.47871732666765, 37.36964155513842], [127.47815579187193, 37.36807794614713], [127.4783292108707, 37.36561805233297], [127.47768779382564, 37.36468542270836], [127.4726223576842, 37.36450460946656], [127.47032098247797, 37.36287381221856], [127.47049734882249, 37.361696956793914], [127.46865450663941, 37.361135376991356], [127.46718731072325, 37.359455655405505], [127.46399146338342, 37.358278334792004], [127.46290513130754, 37.358958860912544], [127.46015882097109, 37.35820329942862], [127.45777607696567, 37.356158203235516], [127.45567345474451, 37.355625686840995], [127.45401161269525, 37.35416906619161], [127.45293811703246, 37.35407127775852], [127.4509687342059, 37.352871738686574], [127.44960204456147, 37.35255476593406], [127.44810280175963, 37.352940653174166], [127.44517561538419, 37.35554610243659], [127.4436878247182, 37.357824795028385], [127.44249691316965, 37.35836108803311], [127.44465708376451, 37.36044282941947], [127.4458456238363, 37.36100601862044], [127.44576559195515, 37.362054511317744], [127.44646287677233, 37.3623634460696], [127.4461414512233, 37.363648033345896], [127.44712866931916, 37.36484050939412], [127.4495326486346, 37.365529487416374], [127.45043518862134, 37.36664505971801], [127.4540223573701, 37.36843928942988], [127.4552462126209, 37.3697688461878], [127.45688069178384, 37.37069275069872], [127.45815105596138, 37.37300169492662], [127.45702641414415, 37.375533789206905], [127.4576895746014, 37.375892457084234], [127.4589056413913, 37.3757953793901], [127.46147009811682, 37.37709696356229], [127.46074880496309, 37.37941190188785], [127.45965131608264, 37.380753130468264], [127.46079974039954, 37.38377982541546], [127.46161533439239, 37.38498309485319], [127.4624430134629, 37.38490417760755], [127.46312700705516, 37.38552881051308], [127.46629141787047, 37.386181236491566], [127.46441510860703, 37.3880940732736], [127.46378616389518, 37.39183366458097], [127.4644830092036, 37.3927256115249], [127.4661578218049, 37.393697201319604], [127.46642789538393, 37.394182927157445], [127.46606075027944, 37.39560423256264], [127.4665072463305, 37.396205991258945], [127.47090140418388, 37.3978416895035], [127.46986893157917, 37.39855900055891], [127.46936411895337, 37.39970862061969], [127.46846215259032, 37.400142253767406], [127.46856006643111, 37.40215101989147], [127.46735186431759, 37.40348118472505], [127.46751719841217, 37.403798344339094], [127.46636666707978, 37.40458397395974], [127.46667520006918, 37.405004467310434], [127.46531295031755, 37.40667939040397], [127.46526909725694, 37.40801822186173], [127.4647169725303, 37.40874704817389], [127.46579470671561, 37.40956687030205], [127.47067670190644, 37.41214390757571], [127.47546265088367, 37.41251343321346], [127.47678154470933, 37.41361907623109], [127.47870107517174, 37.41386254517312], [127.480517229645, 37.41612462187601], [127.48056147291781, 37.41692760498992], [127.48334796826913, 37.42022831455501], [127.48454458341384, 37.42101916112559], [127.48459430822652, 37.421449186553446], [127.48634840320464, 37.422255061542295], [127.48680120381387, 37.42330213977748], [127.48944097197577, 37.42452144166872], [127.49057988730617, 37.424092649522684], [127.49346271738452, 37.424926659502475], [127.4967401275488, 37.42508168722935], [127.49721710895669, 37.42599531458731], [127.49662419940879, 37.42755511371534], [127.49717682858189, 37.42783025302527], [127.4977242891429, 37.42928141516073], [127.49981221683373, 37.43022638781691], [127.49959762771223, 37.43209162244395], [127.50145327295238, 37.43433884051346], [127.50376291193056, 37.43598433904542], [127.50334443590405, 37.43664953767226], [127.5049314875078, 37.43874010162153], [127.50684559909844, 37.44042621738949], [127.51151367322171, 37.438124119243255], [127.51779949717765, 37.43683491084233], [127.52054930014003, 37.43580056802375], [127.52527297166547, 37.432834989342844], [127.52786298462317, 37.4306893415886], [127.52958033797147, 37.428824775837036], [127.53143816988052, 37.42573383527257]]]}}, {"type": "Feature", "properties": {"ADM_CD": "31280350", "ADM_NM": "산북면", "시도명": "경기도", "시군구명": "여주시", "읍면동명": "산북면", "읍면동KEY": "경기도 여주시 산북면", "구시군KEY": "경기도 여주시", "매핑상태": "exact"}, "geometry": {"type": "Polygon", "coordinates": [[[127.42280733570182, 37.43944714632907], [127.42552452103526, 37.43774318001916], [127.426964257173, 37.437628116368785], [127.42876453443665, 37.43647916187352], [127.4335537047248, 37.435989109183716], [127.43554118261034, 37.434404798534615], [127.43819366927666, 37.43471866387247], [127.44064002401481, 37.43416881155826], [127.44248316720935, 37.43428398307688], [127.44353949103356, 37.4335884835452], [127.44671191152626, 37.432597161833726], [127.44760181771447, 37.43270366163042], [127.44829486437182, 37.43245904017569], [127.44889419229216, 37.431434505485605], [127.44986329952111, 37.43136447967951], [127.45236272572946, 37.429615664355474], [127.45549027764064, 37.42843509728439], [127.45682920587682, 37.42844826901501], [127.46261881824466, 37.42689325948435], [127.46549469752513, 37.42724256689918], [127.46876346936524, 37.42597200844889], [127.46868497950179, 37.42529272003187], [127.46948298191487, 37.424120116770695], [127.46911763756489, 37.42395128208205], [127.4732248561071, 37.42229367171113], [127.47981227330405, 37.424021602947086], [127.48191928981467, 37.427382715714295], [127.48218450094838, 37.42916112627112], [127.48270857188396, 37.42998205606941], [127.48704560552204, 37.4332227119519], [127.4895506644891, 37.43363895977898], [127.49692425605825, 37.43229818504091], [127.49968452026768, 37.43589034078609], [127.50395267102748, 37.43712977670964], [127.50334443590405, 37.43664953767226], [127.50376291193056, 37.43598433904542], [127.50145327295238, 37.43433884051346], [127.49959762771223, 37.43209162244395], [127.49981221683373, 37.43022638781691], [127.4977242891429, 37.42928141516073], [127.49717682858189, 37.42783025302527], [127.49662419940879, 37.42755511371534], [127.49721710895669, 37.42599531458731], [127.4967401275488, 37.42508168722935], [127.49346271738452, 37.424926659502475], [127.49057988730617, 37.424092649522684], [127.48944097197577, 37.42452144166872], [127.48680120381387, 37.42330213977748], [127.48634840320464, 37.422255061542295], [127.48459430822652, 37.421449186553446], [127.48454458341384, 37.42101916112559], [127.48334796826913, 37.42022831455501], [127.48056147291781, 37.41692760498992], [127.480517229645, 37.41612462187601], [127.47870107517174, 37.41386254517312], [127.47678154470933, 37.41361907623109], [127.47546265088367, 37.41251343321346], [127.47067670190644, 37.41214390757571], [127.46938192460792, 37.41119489297702], [127.46673895677826, 37.41028026771792], [127.4647169725303, 37.40874704817389], [127.46526909725694, 37.40801822186173], [127.46531295031755, 37.40667939040397], [127.46667520006918, 37.405004467310434], [127.46636666707978, 37.40458397395974], [127.46751719841217, 37.403798344339094], [127.46735186431759, 37.40348118472505], [127.46856006643111, 37.40215101989147], [127.46846215259032, 37.400142253767406], [127.46936411895337, 37.39970862061969], [127.46986893157917, 37.39855900055891], [127.47090140418388, 37.3978416895035], [127.4665072463305, 37.396205991258945], [127.46606075027944, 37.39560423256264], [127.46642789538393, 37.394182927157445], [127.4661578218049, 37.393697201319604], [127.4644830092036, 37.3927256115249], [127.46378616389518, 37.39183366458097], [127.46441510860703, 37.3880940732736], [127.46629141787047, 37.386181236491566], [127.46312700705516, 37.38552881051308], [127.4624430134629, 37.38490417760755], [127.46161533439239, 37.38498309485319], [127.46002583092101, 37.38230303725515], [127.4602399404052, 37.381635116697474], [127.45965131608264, 37.380753130468264], [127.46074880496309, 37.37941190188785], [127.46147009811682, 37.37709696356229], [127.4589056413913, 37.3757953793901], [127.4576895746014, 37.375892457084234], [127.45702641414415, 37.375533789206905], [127.45815105596138, 37.37300169492662], [127.45688069178384, 37.37069275069872], [127.4552462126209, 37.3697688461878], [127.4540223573701, 37.36843928942988], [127.45043518862134, 37.36664505971801], [127.4495326486346, 37.365529487416374], [127.44712866931916, 37.36484050939412], [127.4461414512233, 37.363648033345896], [127.44646287677233, 37.3623634460696], [127.44588701711595, 37.361935091600564], [127.44586049743715, 37.3635288002573], [127.44507084063733, 37.363594823370654], [127.44423282383555, 37.36312951902902], [127.44389782572118, 37.36373437907059], [127.44444842045034, 37.36714715720834], [127.44375769825704, 37.36870849053488], [127.44357003553057, 37.37135816896579], [127.44436811334987, 37.372688679281126], [127.44431176130048, 37.374626064518495], [127.44343913983711, 37.376034901932464], [127.44409542960067, 37.378203884016266], [127.44663778093667, 37.380455878136715], [127.44524184878748, 37.38115490031761], [127.44496998485735, 37.38292189175715], [127.44439902000174, 37.383752969720724], [127.44483199178413, 37.384418094833805], [127.44463587082612, 37.38562618242639], [127.44381763223413, 37.386656394786044], [127.44329918760425, 37.38682052641143], [127.44327891902708, 37.38721703273367], [127.4423314132028, 37.38737370639864], [127.4405789978541, 37.386992834361074], [127.44012902412467, 37.38730081936955], [127.43790360611239, 37.38712885050772], [127.4365458727631, 37.38664735778275], [127.43555437973868, 37.3870203667895], [127.43495332868504, 37.38659012810534], [127.43310588278699, 37.38736266597116], [127.42955174500915, 37.387817112369234], [127.42959439937681, 37.38737548410734], [127.42725572082989, 37.38714966553934], [127.42505792525087, 37.38592316834393], [127.42284399082266, 37.38575988671376], [127.42024160743345, 37.38685935917646], [127.4196069111891, 37.388465364460835], [127.41898571284948, 37.388395521374655], [127.41475779356256, 37.39370829372044], [127.41460775698386, 37.39517746425792], [127.41378732895808, 37.395901133286394], [127.41357182775532, 37.39779400292321], [127.41294098526448, 37.39808452067493], [127.41219712023748, 37.40042972664107], [127.41281509593135, 37.40191424366655], [127.41284551392751, 37.40334674122816], [127.41118065512025, 37.406650206324876], [127.4101122893162, 37.40752787904308], [127.40949102720874, 37.40752100889996], [127.404094998341, 37.41020649004241], [127.40253320226692, 37.411752518053056], [127.39888661943804, 37.41424259770124], [127.3982194487886, 37.41571798334331], [127.40128050672692, 37.41939729100676], [127.40123980798005, 37.42024436358947], [127.40027222601557, 37.42142260837292], [127.4012618765967, 37.421814202805], [127.40174514095905, 37.42252703676819], [127.40173015652942, 37.42352194201642], [127.40263014773845, 37.42520220252402], [127.4056791712275, 37.42845364125484], [127.4071083115373, 37.42912058965558], [127.40723277660399, 37.43014949580666], [127.40976221111823, 37.43139924612544], [127.41499501965623, 37.432083085769264], [127.41572010270254, 37.43335772797791], [127.41700112577851, 37.4341315287375], [127.41997204445413, 37.43754162338753], [127.42280733570182, 37.43944714632907]]]}}, {"type": "Feature", "properties": {"ADM_CD": "31280360", "ADM_NM": "대신면", "시도명": "경기도", "시군구명": "여주시", "읍면동명": "대신면", "읍면동KEY": "경기도 여주시 대신면", "구시군KEY": "경기도 여주시", "매핑상태": "exact"}, "geometry": {"type": "Polygon", "coordinates": [[[127.59112331360747, 37.422210480974954], [127.59203099890202, 37.42104832119045], [127.59383179899633, 37.420230846185646], [127.59427731747121, 37.420741793287654], [127.60057368419726, 37.42117819780525], [127.6013925770797, 37.421006765524744], [127.60180382825072, 37.41991892241919], [127.60406174174047, 37.41973162404881], [127.60541438860633, 37.418571191452806], [127.60774622688704, 37.41883122097729], [127.60896551931502, 37.41841586584954], [127.60917625688259, 37.41794070521513], [127.60879382569985, 37.417019652067026], [127.61056414376732, 37.416178753759176], [127.61100523338631, 37.41555624553657], [127.6136211353446, 37.415596012596865], [127.6140849934566, 37.41449390835927], [127.61511871658567, 37.41499305101594], [127.61559836774335, 37.41438890949638], [127.61767050193423, 37.413825438465885], [127.6188720828709, 37.41230673798977], [127.61919958392339, 37.410661334431666], [127.62046968189962, 37.40924884130315], [127.6231534552631, 37.41019771895793], [127.62393912529012, 37.41139361479999], [127.62590511959424, 37.41270897764319], [127.62642717467325, 37.413589630645944], [127.62806629082428, 37.41323573093887], [127.62877277706956, 37.413454861346345], [127.6299291448264, 37.41294946914528], [127.63149175086066, 37.41306479108015], [127.63187905762344, 37.413499529389945], [127.63534803713235, 37.41346330443345], [127.63650846092072, 37.41234475298098], [127.63711291717108, 37.41111077709523], [127.63989973461537, 37.409813399778045], [127.64021172640565, 37.4089787058313], [127.6422237005468, 37.40788440711454], [127.64222420852911, 37.40680339486421], [127.64326617392183, 37.40585757963434], [127.64671024490036, 37.404751446746324], [127.64665925196091, 37.40302216087547], [127.64598697473421, 37.40181044273473], [127.64609023430194, 37.399142796776246], [127.64673140739333, 37.39753014177029], [127.64608864516678, 37.39712853024114], [127.64636877022052, 37.39627521534758], [127.64600541833019, 37.395486597618], [127.64706064798305, 37.39461950271082], [127.64687123750468, 37.393762433638905], [127.64748736764231, 37.393375521868315], [127.64761954512714, 37.391244952384554], [127.64799536046586, 37.390834025483926], [127.6478642320836, 37.389480556123196], [127.64859021997329, 37.38850542433938], [127.64938545431487, 37.388859929647154], [127.64960918695756, 37.38838828124459], [127.65007505570432, 37.38836460832568], [127.6516324866117, 37.38896164636703], [127.65185210939372, 37.388120381541064], [127.65268679552693, 37.388177056576104], [127.65315350910512, 37.38771903906476], [127.65302247432308, 37.38591753492424], [127.65368844764124, 37.38464364038152], [127.65663336169524, 37.38327423098946], [127.65669604258451, 37.381502796364614], [127.65717995009528, 37.38061393316078], [127.65684975287027, 37.37899828531543], [127.65612274420947, 37.37863176641182], [127.65557681888824, 37.377257486042915], [127.65432850522593, 37.37571669642726], [127.65342462174107, 37.3753205735499], [127.6531635863843, 37.374315348465785], [127.65376700166276, 37.37246139871359], [127.65325822189766, 37.370825287350776], [127.65063168669657, 37.36851154672229], [127.65438352227285, 37.36518657395914], [127.65478802303231, 37.3636134665379], [127.65326083863253, 37.36330746848641], [127.6533295216549, 37.362658374696636], [127.65403648423009, 37.360361655981215], [127.65529411542657, 37.35861279853763], [127.65638325467634, 37.35753635363012], [127.65809186662612, 37.356692955307295], [127.66092645386253, 37.354080491378994], [127.6621579282542, 37.353406967286276], [127.6640191316019, 37.35329045503135], [127.66372872243107, 37.35025961270826], [127.66178150883394, 37.34970844787027], [127.66179386230378, 37.34641622865993], [127.65688550409575, 37.34808310198088], [127.65539404859058, 37.34803814147747], [127.65415010486088, 37.34739961051474], [127.65364725136249, 37.346357953178135], [127.65250446596862, 37.34611911967658], [127.65219551507582, 37.34519747549275], [127.65245322409572, 37.34444123119251], [127.65144044902475, 37.342991734399746], [127.64942128597346, 37.34236403921226], [127.64879585052508, 37.3413332406715], [127.64735953229673, 37.341104820663816], [127.64587501435315, 37.33954455552032], [127.64512881901987, 37.337048669884766], [127.64311929915011, 37.33646185515743], [127.64231908064798, 37.336879484782465], [127.6406228688841, 37.33666971498899], [127.63871009125825, 37.33763131606955], [127.63539836438039, 37.33455607719914], [127.63370615000409, 37.33400546857669], [127.63326863003289, 37.33317797465389], [127.63321312894786, 37.33167025052249], [127.63246816386885, 37.331138593322464], [127.63217558421711, 37.32957490091382], [127.63085349431317, 37.32759439005963], [127.63031720680007, 37.327710093337885], [127.62999060375616, 37.327249572454846], [127.62976248901046, 37.324887532337], [127.62846700635703, 37.323799124044164], [127.62705321932108, 37.322940499795465], [127.62405571908869, 37.32351195282438], [127.62342437737253, 37.32267099667927], [127.6225270661367, 37.32267213294408], [127.62067291289922, 37.320631226726164], [127.62072360657379, 37.32021643301384], [127.61795735492974, 37.318973204659414], [127.61743633804305, 37.32000693825596], [127.61531597115491, 37.32096849759747], [127.61255185077053, 37.322919915702315], [127.61005401950477, 37.325835262960666], [127.60800863173878, 37.327500456160976], [127.60676433697554, 37.33028083513199], [127.60657251454182, 37.33173758916901], [127.60814493984726, 37.33447112559606], [127.60668584189466, 37.335664508032345], [127.60526199769969, 37.3416939541605], [127.60454840989365, 37.34224184988379], [127.59568556485279, 37.34534647634418], [127.59330160768573, 37.34768926461349], [127.58970182926818, 37.348980415837055], [127.58768011563069, 37.35044504873616], [127.58070367142628, 37.351407505519575], [127.57836776875173, 37.35264026353924], [127.57642633690071, 37.35470289823434], [127.57400113781722, 37.35626551182411], [127.5708054189447, 37.357685923205686], [127.56655933680129, 37.358525821506724], [127.56684800445896, 37.3621724107918], [127.5637751512442, 37.3603120026725], [127.56118402872387, 37.360247840414026], [127.55393532389657, 37.36599705855626], [127.5497226641555, 37.36719262658542], [127.54975210550843, 37.36772498589471], [127.54498292135587, 37.37081853192677], [127.54787507433656, 37.37318728323542], [127.54467950704884, 37.37442438051662], [127.54473820621486, 37.37600089990389], [127.54398040726473, 37.379089768321435], [127.54286482727589, 37.38164033099628], [127.54314404241157, 37.38295445001334], [127.54445699385987, 37.38415961585268], [127.54278501870421, 37.385244722193995], [127.53925208751168, 37.388864861479185], [127.53861319722502, 37.39078660953596], [127.53597295309166, 37.39082785480131], [127.53718354097387, 37.39146714426943], [127.53936734397581, 37.39483616294684], [127.53835034451176, 37.40688903964847], [127.53731905127275, 37.410502890839396], [127.53662076642755, 37.41170434885641], [127.54154992340051, 37.411413376313966], [127.54226879088795, 37.41111862616958], [127.54329764491666, 37.40987330887227], [127.5469693330684, 37.410493760525256], [127.54762435449933, 37.41148327885191], [127.55060041074667, 37.41141544594026], [127.55156820042015, 37.414291303104626], [127.5542118446426, 37.41443646844509], [127.5545682069229, 37.4160175107771], [127.55630958228383, 37.41672903446518], [127.55828657570787, 37.41639343472856], [127.56026698835642, 37.41525146308756], [127.5619895055363, 37.41528234429061], [127.56283297881512, 37.41568041330046], [127.56340481039773, 37.41515522933967], [127.56338103946285, 37.414496874462], [127.56430951161558, 37.41397903163065], [127.56527960087708, 37.41125935236052], [127.56564754123775, 37.41118722481201], [127.56847707396393, 37.412796936582325], [127.56840352383531, 37.413246106067675], [127.5706733838781, 37.41358798935918], [127.57184249377278, 37.411681783950556], [127.57331256109259, 37.41271923872076], [127.57522722551192, 37.41305095156098], [127.57556197757744, 37.41382539101461], [127.5764742627326, 37.41426497873875], [127.57813199129711, 37.414440700424734], [127.57949061112322, 37.41590164287335], [127.58178133973183, 37.41674546061054], [127.58254862845882, 37.416486529883294], [127.58301971564593, 37.41693571329372], [127.58379014157697, 37.416107813650555], [127.58378015516813, 37.41500715724482], [127.58447850828594, 37.41387919138954], [127.58638790362504, 37.41461702755705], [127.5863392912185, 37.41596437101442], [127.58802094722547, 37.416574323729485], [127.58836362788362, 37.41736351212649], [127.58768531676954, 37.41963558382722], [127.58711582590519, 37.42002921326195], [127.58727405078103, 37.42112198919848], [127.58809105695934, 37.42104435863791], [127.58845362598495, 37.42189398137993], [127.5890220858821, 37.422201561054294], [127.59112331360747, 37.422210480974954]]]}}, {"type": "Feature", "properties": {"ADM_CD": "31280370", "ADM_NM": "북내면", "시도명": "경기도", "시군구명": "여주시", "읍면동명": "북내면", "읍면동KEY": "경기도 여주시 북내면", "구시군KEY": "경기도 여주시", "매핑상태": "exact"}, "geometry": {"type": "Polygon", "coordinates": [[[127.65828783123605, 37.416840095419786], [127.66567257745439, 37.41436179649629], [127.66793721627991, 37.411637091301884], [127.66963892775553, 37.412345868914315], [127.67374181976561, 37.41197527318999], [127.67621130357364, 37.41291210727201], [127.67770591399096, 37.4124919675231], [127.67902328354306, 37.412999521435935], [127.67998957930936, 37.41242646924588], [127.68081014017027, 37.41348168000847], [127.68308298048844, 37.41435061305758], [127.68558281034679, 37.41346012036955], [127.68608094823243, 37.412530365663685], [127.68798170408519, 37.411854630912146], [127.68744614552809, 37.4097008310793], [127.68660724269547, 37.40876879428339], [127.68653386507431, 37.405997084968725], [127.68485986294232, 37.406101629505564], [127.68424184454848, 37.40320319175386], [127.6839824363605, 37.39822343619645], [127.68682786110703, 37.39888984719332], [127.68843101822834, 37.401158413914416], [127.68995285049441, 37.40148593372273], [127.69147791488888, 37.401107369291886], [127.69204646255493, 37.40183455256613], [127.69307554984594, 37.4018679448409], [127.69407094322833, 37.40283196751488], [127.69499736000091, 37.403040227826516], [127.6978848801338, 37.40556300427614], [127.69782680543761, 37.40623819154106], [127.69889358306548, 37.40752941807317], [127.69999404500349, 37.407644580620975], [127.70090933160998, 37.40714914687998], [127.70185606494685, 37.40786923633992], [127.7032626207208, 37.40803346008409], [127.70550387521905, 37.40951730202501], [127.70765061483746, 37.41029198289591], [127.70890672767274, 37.40981420802547], [127.70987811390505, 37.407646383719815], [127.7104649701839, 37.40749927383228], [127.71074089673958, 37.406112592565854], [127.71146043476172, 37.40625965870722], [127.71285998490973, 37.405590031058864], [127.71298315363589, 37.40519006908365], [127.71411125902543, 37.404899164710415], [127.71399999417476, 37.40358297688154], [127.71514441717453, 37.40209563157488], [127.7144245504813, 37.40147873855465], [127.71492737129306, 37.400022796139865], [127.71433408901865, 37.39841329374592], [127.7134985865466, 37.39829781868473], [127.70968600295062, 37.39588210448877], [127.70937118468565, 37.39490304679398], [127.70780117181204, 37.39467034484207], [127.70523605137872, 37.39326288481223], [127.70383011181555, 37.39120889374262], [127.70309283544236, 37.38778392972956], [127.7040129649846, 37.38552595570317], [127.70340711726752, 37.38467306087566], [127.703739324519, 37.38422456213732], [127.70311396795005, 37.38073874085416], [127.7001546336578, 37.37924879848973], [127.70070819680127, 37.377741767019685], [127.70124647906722, 37.377589378329716], [127.70171063403973, 37.375917230514396], [127.70125409722436, 37.374050105622935], [127.70219618784519, 37.372957578332404], [127.70589103370521, 37.371375882835785], [127.70735885180497, 37.36986128958257], [127.71020613818133, 37.37220787903113], [127.71304491713047, 37.371306611477245], [127.71371009280867, 37.370704196839895], [127.7163635737936, 37.370061732919496], [127.71810422115367, 37.37141058771941], [127.7198363889491, 37.37127629966646], [127.71970484650157, 37.37044714041158], [127.72039129882384, 37.3682729569689], [127.72014945369381, 37.36800491900474], [127.72053844517141, 37.3677247397194], [127.72031404745478, 37.36718630625738], [127.72129568493258, 37.36466307526431], [127.72302499242676, 37.362923744882416], [127.7232869571306, 37.359797141094106], [127.72478459612002, 37.35827202341958], [127.72462056888743, 37.35746733101316], [127.72536084239735, 37.35671399885302], [127.72634712124956, 37.35715075842767], [127.72698040099162, 37.35697983998996], [127.72862735292364, 37.35525393069594], [127.72925842392516, 37.35405999858778], [127.72882807874184, 37.353340094412324], [127.72959295962498, 37.35207778881129], [127.73119429196414, 37.35098804300462], [127.73088789885237, 37.35050692368579], [127.73135113749542, 37.348953675819246], [127.73088837132507, 37.34786054019682], [127.73107107804766, 37.34741181504088], [127.73299795430107, 37.34633348191272], [127.73237708331372, 37.345269483913405], [127.73355613829297, 37.34517234683928], [127.73451838061746, 37.34438333468674], [127.73649847076123, 37.34412549252099], [127.73658110975212, 37.34349765352355], [127.739231843815, 37.341551044640255], [127.73954728529661, 37.33949468069749], [127.73906817559964, 37.336740641679555], [127.73969948852482, 37.33574802416693], [127.73981347478228, 37.334625940616036], [127.73924631036468, 37.33404691645225], [127.73947130530692, 37.3332602788363], [127.73869592289873, 37.331972754964895], [127.73885337341024, 37.33167047057037], [127.73688402188625, 37.33035522954764], [127.73625438439298, 37.3294233841975], [127.73658526877428, 37.3284699863628], [127.73629290600458, 37.32747110833387], [127.7368412494635, 37.32609025267125], [127.73541139884465, 37.324729748977525], [127.73565524787028, 37.32311932329984], [127.73506234361622, 37.32218751167215], [127.7357783529053, 37.31979874684885], [127.7370546252534, 37.31954540532391], [127.73733290916019, 37.31913357198732], [127.73714388127435, 37.31862690337532], [127.73746509847516, 37.31807518397127], [127.73690814466481, 37.317209679960335], [127.73627192745896, 37.3172557980536], [127.73583298464747, 37.316065391324805], [127.73236668934383, 37.31650814229993], [127.73138040525967, 37.31714735952688], [127.73077117560464, 37.31675490559322], [127.7297293282813, 37.316862343436625], [127.72467678425289, 37.31469374257799], [127.72355030538117, 37.31524028856124], [127.7222915222483, 37.314835849402996], [127.7182226713003, 37.31563797004606], [127.7173192050138, 37.3151623179551], [127.71457862331745, 37.315346036581516], [127.7136221759997, 37.31589899600092], [127.71237722393785, 37.315666308561866], [127.71088508503875, 37.316430479428504], [127.71031359750125, 37.317165621639084], [127.70930390439534, 37.3174034938726], [127.70744532907415, 37.315775987828715], [127.70540791159699, 37.312954304292326], [127.70432732135386, 37.31269847013095], [127.70388601945209, 37.313176542686016], [127.7027045175798, 37.31201457913866], [127.70131872570349, 37.3122860135193], [127.7005473732991, 37.310533413278414], [127.69936964286211, 37.31040645340312], [127.69870824112085, 37.30895394309727], [127.69893899171666, 37.30760535587014], [127.69682771647626, 37.305560076997594], [127.69710897129426, 37.30421419744776], [127.69648107815448, 37.30334678868069], [127.69663045957299, 37.30204052591552], [127.69344384246537, 37.29943301952067], [127.69250940845905, 37.29810074555719], [127.6904820633632, 37.296857634433984], [127.68642326485138, 37.29657025075284], [127.68186308425463, 37.294898438375924], [127.68103013493048, 37.295471656049386], [127.67845836907702, 37.29406531451279], [127.67746755406235, 37.29463266701265], [127.67706701081102, 37.29535941417558], [127.67714673569859, 37.29841986249356], [127.67489990359432, 37.29970363744738], [127.67259956531291, 37.29965186522931], [127.67168335088623, 37.30098653392586], [127.67164193668165, 37.302437835971084], [127.67612180929233, 37.304083267089595], [127.67584926603591, 37.30476148025596], [127.67633910715729, 37.30459875172937], [127.6762581226157, 37.305266672007946], [127.67677260661814, 37.305914413459895], [127.67527541015797, 37.30801736670304], [127.67482414985145, 37.31010352446687], [127.67351724655681, 37.3099457784663], [127.67185672121661, 37.31099919872289], [127.67187093436698, 37.31190374178709], [127.67131143277858, 37.312324348605785], [127.67123621146399, 37.313865142005454], [127.6687265587835, 37.31356313641294], [127.6689495500639, 37.31543572024134], [127.66854810170486, 37.316160333658054], [127.66722411628031, 37.31680831660569], [127.66557854920919, 37.31846835819391], [127.6646769089333, 37.31850109484474], [127.66395227393964, 37.319841027090156], [127.6628835884886, 37.3206444977042], [127.66287656967943, 37.32118227847088], [127.66088911421873, 37.321649344631254], [127.65908634332996, 37.32143011329815], [127.65652814795702, 37.3231085311713], [127.6571202934176, 37.32492330985197], [127.6570674418318, 37.32751624947414], [127.65829019837685, 37.32928414261446], [127.65802590643911, 37.32956176942387], [127.65837953235959, 37.33106291420053], [127.65968118657969, 37.33277563460792], [127.65895765474333, 37.33346757755103], [127.65929358053415, 37.33428260169934], [127.65994127118601, 37.3346396720957], [127.6600660168647, 37.335923735758016], [127.66097288288256, 37.33543070744843], [127.66202563227475, 37.33682518941134], [127.66395564522645, 37.3381812560084], [127.66330912741475, 37.33958533819072], [127.66427644567857, 37.340830331268535], [127.66384081937709, 37.341780999455345], [127.6625521564657, 37.34195681202363], [127.66205446935632, 37.34269396722494], [127.66172533882543, 37.344187925603094], [127.66226398597742, 37.34456657566048], [127.6622633255174, 37.34532055996329], [127.66161446510016, 37.34697951218374], [127.66156061830554, 37.348320978767035], [127.66178150883394, 37.34970844787027], [127.66372872243107, 37.35025961270826], [127.6640191316019, 37.35329045503135], [127.6621579282542, 37.353406967286276], [127.66049768114681, 37.354363067736145], [127.65809186662612, 37.356692955307295], [127.65638325467634, 37.35753635363012], [127.65529411542657, 37.35861279853763], [127.6536897581058, 37.3611089152158], [127.65326083863253, 37.36330746848641], [127.65478802303231, 37.3636134665379], [127.65438352227285, 37.36518657395914], [127.65063168669657, 37.36851154672229], [127.65325822189766, 37.370825287350776], [127.65376700166276, 37.37246139871359], [127.6531635863843, 37.374315348465785], [127.65342462174107, 37.3753205735499], [127.65432850522593, 37.37571669642726], [127.65557681888824, 37.377257486042915], [127.65612274420947, 37.37863176641182], [127.65684975287027, 37.37899828531543], [127.65717995009528, 37.38061393316078], [127.65669604258451, 37.381502796364614], [127.65663336169524, 37.38327423098946], [127.65368844764124, 37.38464364038152], [127.65302247432308, 37.38591753492424], [127.65315350910512, 37.38771903906476], [127.65268679552693, 37.388177056576104], [127.65185210939372, 37.388120381541064], [127.6516324866117, 37.38896164636703], [127.65007505570432, 37.38836460832568], [127.64960918695756, 37.38838828124459], [127.64938545431487, 37.388859929647154], [127.64859021997329, 37.38850542433938], [127.6478642320836, 37.389480556123196], [127.64799536046586, 37.390834025483926], [127.64761954512714, 37.391244952384554], [127.64748736764231, 37.393375521868315], [127.64687123750468, 37.393762433638905], [127.64706064798305, 37.39461950271082], [127.64600541833019, 37.395486597618], [127.64636877022052, 37.39627521534758], [127.64608864516678, 37.39712853024114], [127.64673140739333, 37.39753014177029], [127.64609023430194, 37.399142796776246], [127.64598697473421, 37.40181044273473], [127.64665925196091, 37.40302216087547], [127.64671024490036, 37.404751446746324], [127.64934255676181, 37.405884709822], [127.65235131451577, 37.40794379666438], [127.65325462885195, 37.40903001057739], [127.6529554571207, 37.41053795720211], [127.65387266626455, 37.4115660017241], [127.6542884738918, 37.41300511207471], [127.65535419134446, 37.413372867287464], [127.65761855376871, 37.41646321826778], [127.65828783123605, 37.416840095419786]]]}}, {"type": "Feature", "properties": {"ADM_CD": "31280380", "ADM_NM": "강천면", "시도명": "경기도", "시군구명": "여주시", "읍면동명": "강천면", "읍면동KEY": "경기도 여주시 강천면", "구시군KEY": "경기도 여주시", "매핑상태": "exact"}, "geometry": {"type": "Polygon", "coordinates": [[[127.72986574169587, 37.37624050569817], [127.73097254416092, 37.375759804748995], [127.7321243062836, 37.37605775925611], [127.73410485304099, 37.374310444091314], [127.73812784428273, 37.37227840893034], [127.73880792765766, 37.3715073872268], [127.73971403848257, 37.37207184341675], [127.7410651044342, 37.37161701176893], [127.74198225227586, 37.37032285311231], [127.74573394842263, 37.368889737118415], [127.75226134254888, 37.36946036843343], [127.75287545842475, 37.36848805515108], [127.75485866267731, 37.368122132364654], [127.75675802335712, 37.367012854938295], [127.75898647609543, 37.367412492747874], [127.76114202722418, 37.364957533784974], [127.76121650001191, 37.36359775456667], [127.76037979609964, 37.361673501485114], [127.76051985540572, 37.360974049735475], [127.7593542186738, 37.35972800838571], [127.76052825290752, 37.35795564756327], [127.75972839625511, 37.35533829935559], [127.76075790783413, 37.352635173973226], [127.75835087991987, 37.35078947174521], [127.7586328104501, 37.348378896013976], [127.75788404137334, 37.34640767269544], [127.75889156637805, 37.34447055206697], [127.75847980076976, 37.34311464611364], [127.75907173470706, 37.341376429217775], [127.76069294222421, 37.34081670315397], [127.76083701650717, 37.33705296657632], [127.76296543705456, 37.33442778486382], [127.76166044397591, 37.333942308900106], [127.76044316830733, 37.332079145046286], [127.7583941556466, 37.330846901731235], [127.76044064479828, 37.32930433847429], [127.76040389240002, 37.328630794150186], [127.76277176966286, 37.323410887624114], [127.76293565941707, 37.322496718403976], [127.76209627155119, 37.32113905886784], [127.76348216706998, 37.31831055441464], [127.76538875670595, 37.31737501894146], [127.7649245188727, 37.31532316377162], [127.76561600583841, 37.31394832432695], [127.76554630397257, 37.31301651293317], [127.76637037740387, 37.31227432903597], [127.7667924659712, 37.3107584775322], [127.76828114167971, 37.30933848633289], [127.76831984890372, 37.30669322189025], [127.76758503659107, 37.3039265376181], [127.76819469784286, 37.301519704334616], [127.76715406407185, 37.30179730589657], [127.76566544500247, 37.30140712782212], [127.76214363657293, 37.30224150365267], [127.75933302347644, 37.301169925330605], [127.75887394896947, 37.300415736517344], [127.75755572742196, 37.30013104956961], [127.75669295249871, 37.2989007694323], [127.75461344700366, 37.29774244176527], [127.75065610854395, 37.29797725801373], [127.74988254881193, 37.29715947132406], [127.74957552575601, 37.29530335794152], [127.75024784290589, 37.29315667762772], [127.75003759407127, 37.29196247471172], [127.75294787667238, 37.28877957561419], [127.75353149788651, 37.288977332807605], [127.75556437119194, 37.28497750256615], [127.75490145202491, 37.28496934470577], [127.7539767980002, 37.28422598133276], [127.75656874173067, 37.28019546426348], [127.75631090138381, 37.27942759013682], [127.75767449472366, 37.278803103290734], [127.7565381656746, 37.27720429876047], [127.75908407529394, 37.27704584458371], [127.75956170953393, 37.27355305082929], [127.76040783523477, 37.273289714870366], [127.76009009029187, 37.27217140417058], [127.75929510746174, 37.27152438773463], [127.7597121076803, 37.27056157258539], [127.7593243892837, 37.27008821077167], [127.76066014105997, 37.26901166558089], [127.7593369465726, 37.26673551408715], [127.75986889276624, 37.26599496179161], [127.75985701976133, 37.26526719029174], [127.75880774857961, 37.26377569189332], [127.75858169519876, 37.26237999773198], [127.75748888719345, 37.26026143408423], [127.75722118515469, 37.25892322642506], [127.75760958422242, 37.25900794118426], [127.7576108376533, 37.25825109144923], [127.75267106000416, 37.2526092535578], [127.74941438275069, 37.247165481408345], [127.74791599815711, 37.243570866014664], [127.74688265264655, 37.239973302817276], [127.74724480766757, 37.23394348822231], [127.74798099217584, 37.23242739002492], [127.74691492960886, 37.22976680795282], [127.7471790895295, 37.22715743865768], [127.73321845215423, 37.22845029430306], [127.72758399650743, 37.228400176212695], [127.7239066879159, 37.22930343832789], [127.72019169178178, 37.22932604109983], [127.71927891473426, 37.229007918377775], [127.71069909110994, 37.23021747961094], [127.70802548975084, 37.22909169361724], [127.70505754004176, 37.229416908493825], [127.70161520511719, 37.22907866245745], [127.69379659219922, 37.23020101139997], [127.69219171488514, 37.231170789796636], [127.68966597610942, 37.233796963061366], [127.68673426639045, 37.24248950317174], [127.68401519816089, 37.247560474297444], [127.68271705128927, 37.25117202774715], [127.68186159824648, 37.251675642751785], [127.68181278370848, 37.25539043056306], [127.68068513843863, 37.25839185604127], [127.68219769534478, 37.262769813862626], [127.68408620940127, 37.26558044416335], [127.68552945935151, 37.27191729376843], [127.68564558222674, 37.2743926339303], [127.6833997547885, 37.28000066595695], [127.68019814714225, 37.285628336475654], [127.68025676906794, 37.289229688115], [127.67648894531578, 37.2920393406253], [127.67881815951617, 37.29444320316487], [127.68070634947931, 37.29537573473727], [127.68186308425463, 37.294898438375924], [127.68642326485138, 37.29657025075284], [127.68992436416707, 37.29667238690382], [127.69250940845905, 37.29810074555719], [127.69344384246537, 37.29943301952067], [127.69663045957299, 37.30204052591552], [127.69648107815448, 37.30334678868069], [127.69710897129426, 37.30421419744776], [127.69682771647626, 37.305560076997594], [127.69893899171666, 37.30760535587014], [127.69870824112085, 37.30895394309727], [127.69936964286211, 37.31040645340312], [127.7005473732991, 37.310533413278414], [127.70131872570349, 37.3122860135193], [127.7027045175798, 37.31201457913866], [127.70388601945209, 37.313176542686016], [127.70432732135386, 37.31269847013095], [127.70540791159699, 37.312954304292326], [127.70744532907415, 37.315775987828715], [127.70930390439534, 37.3174034938726], [127.71031359750125, 37.317165621639084], [127.71088508503875, 37.316430479428504], [127.71237722393785, 37.315666308561866], [127.7136221759997, 37.31589899600092], [127.71457862331745, 37.315346036581516], [127.7173192050138, 37.3151623179551], [127.7182226713003, 37.31563797004606], [127.7222915222483, 37.314835849402996], [127.72355030538117, 37.31524028856124], [127.72467678425289, 37.31469374257799], [127.7297293282813, 37.316862343436625], [127.73077117560464, 37.31675490559322], [127.73138040525967, 37.31714735952688], [127.73236668934383, 37.31650814229993], [127.73583298464747, 37.316065391324805], [127.73627192745896, 37.3172557980536], [127.73690814466481, 37.317209679960335], [127.73746509847516, 37.31807518397127], [127.7370546252534, 37.31954540532391], [127.7357783529053, 37.31979874684885], [127.73506234361622, 37.32218751167215], [127.73565524787028, 37.32311932329984], [127.73541139884465, 37.324729748977525], [127.7368412494635, 37.32609025267125], [127.73629290600458, 37.32747110833387], [127.73658526877428, 37.3284699863628], [127.73625438439298, 37.3294233841975], [127.73688402188625, 37.33035522954764], [127.73885337341024, 37.33167047057037], [127.73869592289873, 37.331972754964895], [127.73947130530692, 37.3332602788363], [127.73924631036468, 37.33404691645225], [127.73981347478228, 37.334625940616036], [127.73969948852482, 37.33574802416693], [127.73906817559964, 37.336740641679555], [127.73954728529661, 37.33949468069749], [127.739231843815, 37.341551044640255], [127.73658110975212, 37.34349765352355], [127.73649847076123, 37.34412549252099], [127.73451838061746, 37.34438333468674], [127.73355613829297, 37.34517234683928], [127.73237708331372, 37.345269483913405], [127.73299795430107, 37.34633348191272], [127.73107107804766, 37.34741181504088], [127.73088837132507, 37.34786054019682], [127.73135113749542, 37.348953675819246], [127.73088789885237, 37.35050692368579], [127.73119429196414, 37.35098804300462], [127.72959295962498, 37.35207778881129], [127.72882807874184, 37.353340094412324], [127.72925842392516, 37.35405999858778], [127.72862735292364, 37.35525393069594], [127.72698040099162, 37.35697983998996], [127.72634712124956, 37.35715075842767], [127.72536084239735, 37.35671399885302], [127.72462056888743, 37.35746733101316], [127.72478459612002, 37.35827202341958], [127.7232869571306, 37.359797141094106], [127.72302499242676, 37.362923744882416], [127.72129568493258, 37.36466307526431], [127.72031404745478, 37.36718630625738], [127.72053844517141, 37.3677247397194], [127.72014945369381, 37.36800491900474], [127.7202629784925, 37.36918288182759], [127.71970484650157, 37.37044714041158], [127.71979821861882, 37.37126945518503], [127.72047678295755, 37.371712426961565], [127.72311044260485, 37.37200191638359], [127.72415182681864, 37.37155668432397], [127.72584189785408, 37.37229177155639], [127.72710248655946, 37.373487066625344], [127.72853492109049, 37.37394187882193], [127.72842884147728, 37.37518534099456], [127.72986574169587, 37.37624050569817]]]}}, {"type": "Feature", "properties": {"ADM_CD": "31280390", "ADM_NM": "세종대왕면", "시도명": "경기도", "시군구명": "여주시", "읍면동명": "세종대왕면", "읍면동KEY": "경기도 여주시 세종대왕면", "구시군KEY": "경기도 여주시", "매핑상태": "exact"}, "geometry": {"type": "Polygon", "coordinates": [[[127.59891890100005, 37.34445496169722], [127.60526199769969, 37.3416939541605], [127.60668584189466, 37.335664508032345], [127.60814493984726, 37.33447112559606], [127.60657251454182, 37.33173758916901], [127.60676433697554, 37.33028083513199], [127.60800863173878, 37.327500456160976], [127.61005401950477, 37.325835262960666], [127.61296876539426, 37.32258800037514], [127.61743633804305, 37.32000693825596], [127.61948440933708, 37.31639220833649], [127.62124786834839, 37.315033440321265], [127.61774868185688, 37.316273273126974], [127.61734012962894, 37.31583128905581], [127.61785364134502, 37.31560579613778], [127.61814549836383, 37.31480522011964], [127.6176039490589, 37.312521872507915], [127.61681407015922, 37.311444755991296], [127.61691461572077, 37.31066739637136], [127.6163386342723, 37.31009512017073], [127.61624988165009, 37.30934837978374], [127.61715758015836, 37.30789031587545], [127.61621921137609, 37.30507654994631], [127.61720109822458, 37.30287485185786], [127.61723207746965, 37.300184665523645], [127.61802774138856, 37.30036668969324], [127.61821248337641, 37.2999495516535], [127.61892980883087, 37.29981017836517], [127.61954701565865, 37.30006397216749], [127.62087972246837, 37.29866435018103], [127.62125358076561, 37.29756573091361], [127.62184469789467, 37.29750587682722], [127.62174972420634, 37.296876153069675], [127.62243620398652, 37.29571928667139], [127.62372119430398, 37.29539381065752], [127.6237794462161, 37.29506679218286], [127.62310984473505, 37.2945722105001], [127.62193764076895, 37.294534896404286], [127.62122950740266, 37.293816322970955], [127.61858442367128, 37.292653828822814], [127.61705260927454, 37.29063976004696], [127.61778565657818, 37.289829265373506], [127.61716327349446, 37.289091958727404], [127.61399082849488, 37.28846831405224], [127.61026192788074, 37.28877298376505], [127.60721911953888, 37.2873747063702], [127.60552618122172, 37.28949866897853], [127.59885296383744, 37.28938868522482], [127.59921952097088, 37.2890528004794], [127.59902483830997, 37.28802392864148], [127.59807666057581, 37.28654035488588], [127.59712149146635, 37.286759372933965], [127.5959476405069, 37.286393756541166], [127.59680052467172, 37.28485727910922], [127.59799328182547, 37.284767417033464], [127.5989630377833, 37.2841648883962], [127.59865245257811, 37.283128825012035], [127.59971430236571, 37.280330987706186], [127.59918433879956, 37.279888959154384], [127.59831320923861, 37.2798725934954], [127.59819339960656, 37.279156238577045], [127.59877738379964, 37.277930131557966], [127.59800735632902, 37.276857665295516], [127.59815651411695, 37.27308290013005], [127.5976951965342, 37.272830774962856], [127.59885244497137, 37.27227685162501], [127.60079510844729, 37.26915253759146], [127.60072735473082, 37.2673079667927], [127.59972112339534, 37.266397429156335], [127.60064452327771, 37.265359305261974], [127.59994168338642, 37.26378325252001], [127.60145194165995, 37.26229065347461], [127.60023719333724, 37.25944413853974], [127.60077225030871, 37.25761852677546], [127.59924214343246, 37.25555915307589], [127.59951301781895, 37.25235822346943], [127.59916219633394, 37.25141290960951], [127.59798759818375, 37.25022466103946], [127.59669945224896, 37.249621709558866], [127.59392827947558, 37.2495029112935], [127.59292736959534, 37.248735987272674], [127.59249752955954, 37.248766904879176], [127.5910231166797, 37.2506071616289], [127.59001027777788, 37.251016373048735], [127.58899862278437, 37.25080399886503], [127.58750481335717, 37.24913848363124], [127.58631300619992, 37.24878987653084], [127.58350215226845, 37.24983830935562], [127.57981461615894, 37.24831665079062], [127.57705663532047, 37.24902038899452], [127.57423802722231, 37.248423835310675], [127.57400324236099, 37.25063322072661], [127.57325126117243, 37.25166063501338], [127.57250421256403, 37.2516175939271], [127.5718618778985, 37.2521524840498], [127.5710491844895, 37.25177300819801], [127.57059503163256, 37.251957694554456], [127.56952177127184, 37.25301202072829], [127.56827882950307, 37.25352960374474], [127.56689222638522, 37.25545698584444], [127.56499458128917, 37.255144660623635], [127.56414174452209, 37.25588051981652], [127.5634337235128, 37.25528461898307], [127.56094626318335, 37.25478131773482], [127.559907942602, 37.25176164766401], [127.55747320450423, 37.25258532650414], [127.5563803100667, 37.25111042768823], [127.55339036022635, 37.25387973620225], [127.55331162862448, 37.258152946018704], [127.55160689059286, 37.26091224516036], [127.5514407306821, 37.26325387833321], [127.55177886809966, 37.26492264273326], [127.54898109118156, 37.26381329806695], [127.54838082083013, 37.26312549156061], [127.54808475839829, 37.26186733488194], [127.54897415647109, 37.260391005711284], [127.5475328616813, 37.260290042828025], [127.54683126661905, 37.259620769079234], [127.54755175680023, 37.256026828264126], [127.54690833200009, 37.25547953702929], [127.54609708870315, 37.25302852493541], [127.54475763032661, 37.252424783298345], [127.54304432839783, 37.252397635434725], [127.54279358852506, 37.25099617295879], [127.5430795407133, 37.249715271377596], [127.54145277920615, 37.248613274257984], [127.54026374410428, 37.248555412305876], [127.53875634415049, 37.24697914672722], [127.53705223857654, 37.24693769754047], [127.53721095390416, 37.24745061676511], [127.53544886495372, 37.24933718703794], [127.53618394659816, 37.25049015894188], [127.53710820025924, 37.25095252517686], [127.53720928775894, 37.25199179852832], [127.53805139914041, 37.252941936591114], [127.53575459070349, 37.253494074798034], [127.53508722803709, 37.25488965352271], [127.53323851421366, 37.2563630296299], [127.53245777993924, 37.257536488133184], [127.53195494848588, 37.263382114920056], [127.5312729702194, 37.265623854578934], [127.53019279652138, 37.26720988375665], [127.52920293912099, 37.2722369967584], [127.52931668533752, 37.27321716781812], [127.52886458860179, 37.27412990979415], [127.52993411456274, 37.27546316248235], [127.5306288160859, 37.279247109822485], [127.5311387179006, 37.28069313469443], [127.53207283700796, 37.281810498776125], [127.53223962977351, 37.28436821140178], [127.53322715428514, 37.28594757778246], [127.534348125929, 37.286754608694714], [127.53419270678705, 37.289397887318394], [127.53684382518931, 37.28961558905929], [127.53854777104863, 37.291752994435655], [127.53911337448353, 37.29185849153931], [127.53981337177011, 37.29288294165141], [127.541175781403, 37.29328920715275], [127.54469863038216, 37.29669784364598], [127.555436810034, 37.29855082181158], [127.5573717748986, 37.29946774564071], [127.56081298059715, 37.2993783999874], [127.5628845017289, 37.3015182120236], [127.56530146494089, 37.30291698861126], [127.5660658805605, 37.30471185593572], [127.56706803294554, 37.305712002577444], [127.56715865002256, 37.30741298652964], [127.56941038819801, 37.30857293032], [127.56991107104126, 37.30943257429823], [127.56955460407806, 37.310931440903715], [127.57002442246582, 37.311192678466156], [127.5701699802146, 37.31231691517764], [127.56820275455364, 37.31301733158047], [127.56861825743344, 37.314077953971626], [127.57028100534231, 37.3149794330287], [127.57030728240089, 37.315805257221164], [127.5697322360863, 37.31658244276665], [127.56996646938387, 37.317664158117736], [127.57193690318117, 37.31760308442722], [127.57227085345019, 37.320233401484465], [127.57546227166486, 37.3227995053076], [127.57427143224405, 37.324248691652606], [127.57465552666218, 37.331034039484024], [127.57187247286228, 37.33273548013743], [127.57179381065275, 37.33328540586419], [127.57314406116295, 37.33613090894846], [127.57303664532584, 37.33826677165959], [127.57117091933635, 37.340062313322186], [127.57155078769458, 37.34194827506793], [127.56987788052898, 37.34275096096877], [127.56993646744783, 37.34396524168835], [127.57288075679952, 37.34439247402396], [127.57305851522379, 37.345457951800455], [127.57047080554385, 37.34629688585924], [127.56936964228409, 37.34859702356231], [127.56679351277134, 37.34992154768041], [127.56684024492903, 37.350697329106374], [127.56807046531213, 37.35183067983704], [127.56763162626244, 37.352858499764686], [127.56595463914351, 37.354607074713286], [127.56655933680129, 37.358525821506724], [127.5708054189447, 37.357685923205686], [127.57400113781722, 37.35626551182411], [127.57642633690071, 37.35470289823434], [127.57836776875173, 37.35264026353924], [127.58070367142628, 37.351407505519575], [127.58768011563069, 37.35044504873616], [127.58970182926818, 37.348980415837055], [127.59330160768573, 37.34768926461349], [127.59568556485279, 37.34534647634418], [127.59891890100005, 37.34445496169722]]]}}, {"type": "Feature", "properties": {"ADM_CD": "31280510", "ADM_NM": "여흥동", "시도명": "경기도", "시군구명": "여주시", "읍면동명": "여흥동", "읍면동KEY": "경기도 여주시 여흥동", "구시군KEY": "경기도 여주시", "매핑상태": "exact"}, "geometry": {"type": "Polygon", "coordinates": [[[127.64077127487488, 37.300657354673206], [127.64416191815558, 37.298003237604206], [127.64929291980606, 37.296703294700286], [127.65062766122257, 37.29460115911686], [127.65490673713076, 37.29378174923301], [127.65669325549159, 37.29517588899744], [127.66055303976398, 37.29463425062738], [127.66620195895554, 37.29576956604062], [127.67009388240702, 37.29602581608326], [127.67182955524154, 37.29448298670657], [127.6770253125007, 37.29175892168711], [127.68025676906794, 37.289229688115], [127.68019814714225, 37.285628336475654], [127.6833997547885, 37.28000066595695], [127.68564558222674, 37.2743926339303], [127.68552945935151, 37.27191729376843], [127.68408620940127, 37.26558044416335], [127.68219769534478, 37.262769813862626], [127.68068513843863, 37.25839185604127], [127.68181278370848, 37.25539043056306], [127.68186159824648, 37.251675642751785], [127.68271705128927, 37.25117202774715], [127.68401519816089, 37.247560474297444], [127.68597864074769, 37.24394505637926], [127.68332292434555, 37.24396037671735], [127.68369704850716, 37.24343213453082], [127.68157090201393, 37.24224714947385], [127.67952039495691, 37.24321038541213], [127.67753651391376, 37.24263088315416], [127.67658459098269, 37.24184417932832], [127.67586155881068, 37.24220270741773], [127.67199251108744, 37.242449860196714], [127.67152293858474, 37.24366366993463], [127.67089091889554, 37.24367694015785], [127.67016980412524, 37.24274716905896], [127.66988559605221, 37.24122341481453], [127.66641094827541, 37.23736222588022], [127.6662592475543, 37.23685566680368], [127.66745463135668, 37.23499652917258], [127.66751444854702, 37.23400129935083], [127.66631504697543, 37.23256612277134], [127.66505261786367, 37.229198875678655], [127.66156299520041, 37.2280374928749], [127.65900711122505, 37.22631345235785], [127.65820053397078, 37.22518672458783], [127.65543109529804, 37.22415719232357], [127.6519062638301, 37.22392286182093], [127.65095666465956, 37.22457457697763], [127.65084748524707, 37.22408207140247], [127.64799435300873, 37.22210436759233], [127.64822987482471, 37.220844725304694], [127.64891611807225, 37.22020792437623], [127.64848710947527, 37.21869172383496], [127.6490968129809, 37.21590038215214], [127.64729950622785, 37.2152212492446], [127.64701145639111, 37.214761511514226], [127.64449408029255, 37.21489452566997], [127.6414592952954, 37.214379841401886], [127.64213558422158, 37.21275898499585], [127.64120468572838, 37.212299310261166], [127.63910352633025, 37.21272907725035], [127.63819741413066, 37.21238546036345], [127.6363216472796, 37.21376152310875], [127.63559659276586, 37.21386288865046], [127.63464453604101, 37.2149925169957], [127.63236359432668, 37.21526256847942], [127.6305650889943, 37.21647248389036], [127.6277727005176, 37.21603941541198], [127.62621273326546, 37.21645913364473], [127.62142800391467, 37.219979161489114], [127.6205969515492, 37.220126048714555], [127.62057556635708, 37.22128827938581], [127.61960789997248, 37.22141643035915], [127.61906356032848, 37.22198416315851], [127.61876926183685, 37.22342606864501], [127.61930912625158, 37.22412683075743], [127.61838895885987, 37.22480549411654], [127.61891246145242, 37.22677439300399], [127.61803576390997, 37.22897250900377], [127.61612544323862, 37.23060457483589], [127.61679895862461, 37.23188810232928], [127.61618599864393, 37.23319486477734], [127.61556523253105, 37.2336038698787], [127.61391968789795, 37.232860295411186], [127.6122867319528, 37.23348894842194], [127.60850819277334, 37.23352805824428], [127.60848573065968, 37.23400515383804], [127.60981163537592, 37.234769484011565], [127.60981555400808, 37.23551945074319], [127.6086475602889, 37.236300893750894], [127.60857478414925, 37.23701904342285], [127.60739230653911, 37.23725282781428], [127.60677603929543, 37.23821502245183], [127.60737299135045, 37.23853150547405], [127.60725740956504, 37.23932560298872], [127.60877258770557, 37.239058440490766], [127.60999024357682, 37.24008856033787], [127.6104562236135, 37.24233667607152], [127.60958988704765, 37.24596973336684], [127.61392511628833, 37.2467193912891], [127.61431220441666, 37.24594602203852], [127.61411427717576, 37.24512260814522], [127.61550974244494, 37.244994580690644], [127.61624332572671, 37.24668723146422], [127.61808947969207, 37.24814342874967], [127.61857894262307, 37.24778420759925], [127.6190533054165, 37.24820569356163], [127.62081549369246, 37.24842716140456], [127.62208370901784, 37.247494143597464], [127.62356453728677, 37.2487356436424], [127.62431697066276, 37.25029433431576], [127.62478700853904, 37.25046161286], [127.62518612686208, 37.25115942645266], [127.62485036531024, 37.251995811578425], [127.62528889230491, 37.253343414110624], [127.62436524377257, 37.25485811863108], [127.62494786373277, 37.255634707960326], [127.62468879907374, 37.256643413444856], [127.62704697569757, 37.25815032508982], [127.62637754964061, 37.26140945753441], [127.62722445506951, 37.26290203190137], [127.62697004620183, 37.26408276692454], [127.62815460331227, 37.264985155207455], [127.62897547352568, 37.26512414337097], [127.63001110797902, 37.26637472608393], [127.62993048546394, 37.26728863578021], [127.62888800751438, 37.26786458103219], [127.62820172610051, 37.268986263949486], [127.62901299804089, 37.26927030299895], [127.63090232339198, 37.26750989953543], [127.63289087304206, 37.2673358571686], [127.63472150327087, 37.26814669548131], [127.6346613940472, 37.267862653847835], [127.63524213656102, 37.26772327699604], [127.63791190676342, 37.26769726906417], [127.638788547197, 37.26867241184826], [127.64175746269048, 37.268929213423164], [127.6437167487425, 37.269735285436695], [127.64514379791787, 37.27172897841429], [127.64450366969542, 37.27221160886834], [127.6440206037636, 37.273476188340275], [127.64536455146249, 37.27767208335334], [127.64459402589468, 37.27941592848625], [127.64231972716753, 37.2806329851783], [127.63899723063172, 37.27990471001625], [127.63914031542238, 37.28087362392149], [127.63837468223245, 37.28114295091951], [127.63783309131546, 37.28189722114131], [127.63608713383886, 37.28193247040928], [127.63465098873979, 37.28408973762095], [127.63162059657445, 37.2860528835805], [127.63194872386813, 37.287428849396804], [127.6343011713698, 37.29158625540681], [127.63380444962395, 37.292225605247765], [127.63512578921704, 37.291803170316555], [127.63556798476141, 37.292397913503876], [127.63603930882044, 37.29448606951462], [127.63512029553729, 37.2949174258984], [127.63508350403522, 37.29573720488897], [127.63624736969047, 37.29727876789882], [127.63731377669029, 37.30045108652176], [127.63915644396657, 37.299954164993046], [127.64077127487488, 37.300657354673206]]]}}, {"type": "Feature", "properties": {"ADM_CD": "31280520", "ADM_NM": "중앙동", "시도명": "경기도", "시군구명": "여주시", "읍면동명": "중앙동", "읍면동KEY": "경기도 여주시 중앙동", "구시군KEY": "경기도 여주시", "매핑상태": "exact"}, "geometry": {"type": "Polygon", "coordinates": [[[127.62124786834839, 37.315033440321265], [127.62354164815665, 37.31276689908253], [127.62438184835958, 37.31075666196736], [127.62580793497204, 37.30915091093593], [127.62682302259579, 37.30714794096029], [127.6267933713078, 37.303567033581956], [127.6324264759966, 37.3027888016569], [127.63731377669029, 37.30045108652176], [127.63624736969047, 37.29727876789882], [127.63508350403522, 37.29573720488897], [127.63512029553729, 37.2949174258984], [127.63603930882044, 37.29448606951462], [127.63556798476141, 37.292397913503876], [127.63512578921704, 37.291803170316555], [127.63380444962395, 37.292225605247765], [127.6343011713698, 37.29158625540681], [127.63194872386813, 37.287428849396804], [127.63162059657445, 37.2860528835805], [127.63465098873979, 37.28408973762095], [127.63608713383886, 37.28193247040928], [127.63783309131546, 37.28189722114131], [127.63837468223245, 37.28114295091951], [127.63914031542238, 37.28087362392149], [127.63899723063172, 37.27990471001625], [127.64231972716753, 37.2806329851783], [127.64459402589468, 37.27941592848625], [127.64536455146249, 37.27767208335334], [127.6440206037636, 37.273476188340275], [127.64450366969542, 37.27221160886834], [127.64514379791787, 37.27172897841429], [127.6437167487425, 37.269735285436695], [127.64175746269048, 37.268929213423164], [127.638788547197, 37.26867241184826], [127.63791190676342, 37.26769726906417], [127.63524213656102, 37.26772327699604], [127.6346613940472, 37.267862653847835], [127.63472150327087, 37.26814669548131], [127.63289087304206, 37.2673358571686], [127.63090232339198, 37.26750989953543], [127.62901299804089, 37.26927030299895], [127.62820172610051, 37.268986263949486], [127.62888800751438, 37.26786458103219], [127.62993048546394, 37.26728863578021], [127.63001110797902, 37.26637472608393], [127.62897547352568, 37.26512414337097], [127.62815460331227, 37.264985155207455], [127.62697004620183, 37.26408276692454], [127.62722445506951, 37.26290203190137], [127.62637754964061, 37.26140945753441], [127.62704697569757, 37.25815032508982], [127.62468879907374, 37.256643413444856], [127.62494786373277, 37.255634707960326], [127.62436524377257, 37.25485811863108], [127.62528889230491, 37.253343414110624], [127.62485036531024, 37.251995811578425], [127.62518612686208, 37.25115942645266], [127.62356453728677, 37.2487356436424], [127.62208370901784, 37.247494143597464], [127.62081549369246, 37.24842716140456], [127.6190533054165, 37.24820569356163], [127.61857894262307, 37.24778420759925], [127.61808947969207, 37.24814342874967], [127.61624332572671, 37.24668723146422], [127.61550974244494, 37.244994580690644], [127.61411427717576, 37.24512260814522], [127.61431220441666, 37.24594602203852], [127.61392511628833, 37.2467193912891], [127.60958988704765, 37.24596973336684], [127.6104562236135, 37.24233667607152], [127.60988044021947, 37.23986974682303], [127.60945307633328, 37.23987679857186], [127.60877258770557, 37.239058440490766], [127.60725740956504, 37.23932560298872], [127.60523056130762, 37.238650975577414], [127.60397996300993, 37.24029470442665], [127.60348393063423, 37.24177787311307], [127.6030487049406, 37.24178756326452], [127.60245643246333, 37.242727401369336], [127.6026125625675, 37.243244409757246], [127.60205522786225, 37.24360264660865], [127.60201881608378, 37.24414541058045], [127.60000640120438, 37.244531812769914], [127.59758200320756, 37.246169426192495], [127.5976619496727, 37.2483033174894], [127.59920310438937, 37.25087123410107], [127.59951301781895, 37.25235822346943], [127.59924214343246, 37.25555915307589], [127.60077225030871, 37.25761852677546], [127.60023719333724, 37.25944413853974], [127.60145194165995, 37.26229065347461], [127.59994168338642, 37.26378325252001], [127.60064452327771, 37.265359305261974], [127.59972112339534, 37.266397429156335], [127.60072735473082, 37.2673079667927], [127.60079510844729, 37.26915253759146], [127.59885244497137, 37.27227685162501], [127.5976951965342, 37.272830774962856], [127.59815651411695, 37.27308290013005], [127.59800735632902, 37.276857665295516], [127.59877738379964, 37.277930131557966], [127.59819339960656, 37.279156238577045], [127.59831320923861, 37.2798725934954], [127.59918433879956, 37.279888959154384], [127.59971430236571, 37.280330987706186], [127.59865245257811, 37.283128825012035], [127.5989630377833, 37.2841648883962], [127.59799328182547, 37.284767417033464], [127.59680052467172, 37.28485727910922], [127.5959476405069, 37.286393756541166], [127.59712149146635, 37.286759372933965], [127.59807666057581, 37.28654035488588], [127.59902483830997, 37.28802392864148], [127.59921952097088, 37.2890528004794], [127.59885296383744, 37.28938868522482], [127.60552618122172, 37.28949866897853], [127.60721911953888, 37.2873747063702], [127.61026192788074, 37.28877298376505], [127.61399082849488, 37.28846831405224], [127.61716327349446, 37.289091958727404], [127.61778565657818, 37.289829265373506], [127.61705260927454, 37.29063976004696], [127.61858442367128, 37.292653828822814], [127.62122950740266, 37.293816322970955], [127.62193764076895, 37.294534896404286], [127.62310984473505, 37.2945722105001], [127.6237794462161, 37.29506679218286], [127.62372119430398, 37.29539381065752], [127.62243620398652, 37.29571928667139], [127.62174972420634, 37.296876153069675], [127.62184469789467, 37.29750587682722], [127.62125358076561, 37.29756573091361], [127.62087972246837, 37.29866435018103], [127.61954701565865, 37.30006397216749], [127.61892980883087, 37.29981017836517], [127.61821248337641, 37.2999495516535], [127.61802774138856, 37.30036668969324], [127.61723207746965, 37.300184665523645], [127.61720109822458, 37.30287485185786], [127.61621921137609, 37.30507654994631], [127.61715758015836, 37.30789031587545], [127.61624988165009, 37.30934837978374], [127.6163386342723, 37.31009512017073], [127.61691461572077, 37.31066739637136], [127.61681407015922, 37.311444755991296], [127.6176039490589, 37.312521872507915], [127.61814549836383, 37.31480522011964], [127.61785364134502, 37.31560579613778], [127.61734012962894, 37.31583128905581], [127.61774868185688, 37.316273273126974], [127.62124786834839, 37.315033440321265]]]}}, {"type": "Feature", "properties": {"ADM_CD": "31280530", "ADM_NM": "오학동", "시도명": "경기도", "시군구명": "여주시", "읍면동명": "오학동", "읍면동KEY": "경기도 여주시 오학동", "구시군KEY": "경기도 여주시", "매핑상태": "exact"}, "geometry": {"type": "Polygon", "coordinates": [[[127.65771090258015, 37.34792092176706], [127.65883877236695, 37.34718358366104], [127.66179386230378, 37.34641622865993], [127.6622633255174, 37.34532055996329], [127.66226398597742, 37.34456657566048], [127.66172533882543, 37.344187925603094], [127.66205446935632, 37.34269396722494], [127.6625521564657, 37.34195681202363], [127.66384081937709, 37.341780999455345], [127.66427644567857, 37.340830331268535], [127.66330912741475, 37.33958533819072], [127.66395564522645, 37.3381812560084], [127.66202563227475, 37.33682518941134], [127.66097288288256, 37.33543070744843], [127.6600660168647, 37.335923735758016], [127.65994127118601, 37.3346396720957], [127.65929358053415, 37.33428260169934], [127.65895765474333, 37.33346757755103], [127.65968118657969, 37.33277563460792], [127.65837953235959, 37.33106291420053], [127.65802590643911, 37.32956176942387], [127.65829019837685, 37.32928414261446], [127.6570674418318, 37.32751624947414], [127.6571202934176, 37.32492330985197], [127.65652814795702, 37.3231085311713], [127.65908634332996, 37.32143011329815], [127.66088911421873, 37.321649344631254], [127.66287656967943, 37.32118227847088], [127.6628835884886, 37.3206444977042], [127.66395227393964, 37.319841027090156], [127.6646769089333, 37.31850109484474], [127.66557854920919, 37.31846835819391], [127.66722411628031, 37.31680831660569], [127.66854810170486, 37.316160333658054], [127.6689495500639, 37.31543572024134], [127.6687265587835, 37.31356313641294], [127.67123621146399, 37.313865142005454], [127.67131143277858, 37.312324348605785], [127.67187093436698, 37.31190374178709], [127.67185672121661, 37.31099919872289], [127.67351724655681, 37.3099457784663], [127.67482414985145, 37.31010352446687], [127.67527541015797, 37.30801736670304], [127.67677260661814, 37.305914413459895], [127.6762581226157, 37.305266672007946], [127.67633910715729, 37.30459875172937], [127.67584926603591, 37.30476148025596], [127.6761754275004, 37.30416007091033], [127.67520092805735, 37.303523650410746], [127.67190244628122, 37.30269671732168], [127.67161712471993, 37.30169147834017], [127.67259956531291, 37.29965186522931], [127.67489990359432, 37.29970363744738], [127.67714673569859, 37.29841986249356], [127.67706701081102, 37.29535941417558], [127.67746755406235, 37.29463266701265], [127.67845836907702, 37.29406531451279], [127.67648894531578, 37.2920393406253], [127.67182955524154, 37.29448298670657], [127.67009388240702, 37.29602581608326], [127.66620195895554, 37.29576956604062], [127.66055303976398, 37.29463425062738], [127.65669325549159, 37.29517588899744], [127.65490673713076, 37.29378174923301], [127.65062766122257, 37.29460115911686], [127.64929291980606, 37.296703294700286], [127.64416191815558, 37.298003237604206], [127.64077127487488, 37.300657354673206], [127.63915644396657, 37.299954164993046], [127.63731377669029, 37.30045108652176], [127.6324264759966, 37.3027888016569], [127.6267933713078, 37.303567033581956], [127.62682302259579, 37.30714794096029], [127.62580793497204, 37.30915091093593], [127.62438184835958, 37.31075666196736], [127.62354164815665, 37.31276689908253], [127.61948440933708, 37.31639220833649], [127.61795735492974, 37.318973204659414], [127.62072360657379, 37.32021643301384], [127.62067291289922, 37.320631226726164], [127.6225270661367, 37.32267213294408], [127.62342437737253, 37.32267099667927], [127.62405571908869, 37.32351195282438], [127.62705321932108, 37.322940499795465], [127.62976248901046, 37.324887532337], [127.62999060375616, 37.327249572454846], [127.63031720680007, 37.327710093337885], [127.63085349431317, 37.32759439005963], [127.63217558421711, 37.32957490091382], [127.63246816386885, 37.331138593322464], [127.63321312894786, 37.33167025052249], [127.63326863003289, 37.33317797465389], [127.63370615000409, 37.33400546857669], [127.63539836438039, 37.33455607719914], [127.63871009125825, 37.33763131606955], [127.6406228688841, 37.33666971498899], [127.64231908064798, 37.336879484782465], [127.64311929915011, 37.33646185515743], [127.64512881901987, 37.337048669884766], [127.64587501435315, 37.33954455552032], [127.64735953229673, 37.341104820663816], [127.64879585052508, 37.3413332406715], [127.64942128597346, 37.34236403921226], [127.65052822559005, 37.34250362056487], [127.651939331411, 37.34355465445063], [127.65245322409572, 37.34444123119251], [127.65219551507582, 37.34519747549275], [127.65250446596862, 37.34611911967658], [127.65364725136249, 37.346357953178135], [127.65415010486088, 37.34739961051474], [127.65539404859058, 37.34803814147747], [127.65771090258015, 37.34792092176706]]]}}]}